G90
M82
M140 S60
M104 S200
M190 S60
M109 S200
G28 T300 ; A1 mini: allow homing without forcing nozzle down to ~140C
M109 S200 ; ensure PLA nozzle temperature is back at 200C before extrusion
G1 Z5 F3000 
G1 X5 Y10 F1500 
G1 Z1.0 F3000 
G92 E0 
G1 X80 E40 F600 
G1 X100 F5000 
T0
G1 Z1.0000 F1000
G1 X80.462 Y80.185 F30000
G92 E0.00000
G92 E0
G1 X90 Y90 Z0.5 E0 F100
G1 X70 Y60 Z0.5 E7.1953 F100
G1 X67.786943 Y60.248333 Z0.5 E7.6397 F100
G1 X65.6838 Y60.98026 Z0.5 E8.0841 F100
G1 X63.794864 Y62.159448 Z0.5 E8.5285 F100
G1 X62.213796 Y63.727385 Z0.5 E8.9728 F100
G1 X61.018983 Y65.606285 Z0.5 E9.4172 F100
G1 X60.269652 Y67.702946 Z0.5 E9.8615 F100
G1 X60.000475 Y69.913489 Z0.5 E10.3059 F100
G1 X60.0 Y72.140516 Z0.5 E10.7503 F100
G1 X60 Y74.367545 Z0.5 E11.1947 F100
G1 X60 Y76.594573 Z0.5 E11.6392 F100
G1 X60 Y78.821602 Z0.5 E12.0836 F100
G1 X60 Y81.04863 Z0.5 E12.528 F100
G1 X60 Y83.275659 Z0.5 E12.9725 F100
G1 X60.0 Y85.502687 Z0.5 E13.4169 F100
G1 X60 Y87.729715 Z0.5 E13.8613 F100
G1 X60 Y89.956744 Z0.5 E14.3057 F100
G1 X60.0 Y92.183772 Z0.5 E14.7502 F100
G1 X60 Y94.410801 Z0.5 E15.1946 F100
G1 X60 Y96.637829 Z0.5 E15.639 F100
G1 X60 Y98.864858 Z0.5 E16.0834 F100
G1 X60.0 Y101.091886 Z0.5 E16.5279 F100
G1 X60.0 Y103.318915 Z0.5 E16.9723 F100
G1 X60 Y105.545943 Z0.5 E17.4167 F100
G1 X60 Y107.772972 Z0.5 E17.8612 F100
G1 X60 Y110 Z0.5 E18.3056 F100
G1 X60.248333 Y112.213057 Z0.5 E18.75 F100
G1 X60.98026 Y114.3162 Z0.5 E19.1944 F100
G1 X62.159448 Y116.205136 Z0.5 E19.6388 F100
G1 X63.727385 Y117.786204 Z0.5 E20.0831 F100
G1 X65.606285 Y118.981017 Z0.5 E20.5275 F100
G1 X67.702946 Y119.730348 Z0.5 E20.9718 F100
G1 X69.913489 Y119.999525 Z0.5 E21.4162 F100
G1 X72.140516 Y120 Z0.5 E21.8606 F100
G1 X74.367545 Y120 Z0.5 E22.3051 F100
G1 X76.594573 Y120 Z0.5 E22.7495 F100
G1 X78.821602 Y120 Z0.5 E23.1939 F100
G1 X81.04863 Y120 Z0.5 E23.6383 F100
G1 X83.275659 Y120 Z0.5 E24.0828 F100
G1 X85.502687 Y120 Z0.5 E24.5272 F100
G1 X87.729715 Y120 Z0.5 E24.9716 F100
G1 X89.956744 Y120 Z0.5 E25.4161 F100
G1 X92.183772 Y120 Z0.5 E25.8605 F100
G1 X94.410801 Y120 Z0.5 E26.3049 F100
G1 X96.637829 Y120 Z0.5 E26.7493 F100
G1 X98.864858 Y120 Z0.5 E27.1938 F100
G1 X101.091886 Y120 Z0.5 E27.6382 F100
G1 X103.318915 Y120 Z0.5 E28.0826 F100
G1 X105.545943 Y120 Z0.5 E28.527 F100
G1 X107.772972 Y120 Z0.5 E28.9715 F100
G1 X110 Y120 Z0.5 E29.4159 F100
G1 X112.213057 Y119.751667 Z0.5 E29.8603 F100
G1 X114.3162 Y119.01974 Z0.5 E30.3047 F100
G1 X116.205136 Y117.840552 Z0.5 E30.7491 F100
G1 X117.786204 Y116.272615 Z0.5 E31.1934 F100
G1 X118.981017 Y114.393715 Z0.5 E31.6378 F100
G1 X119.730348 Y112.297054 Z0.5 E32.0821 F100
G1 X119.999525 Y110.086511 Z0.5 E32.5265 F100
G1 X120 Y107.859484 Z0.5 E32.9709 F100
G1 X120 Y105.632455 Z0.5 E33.4154 F100
G1 X120 Y103.405427 Z0.5 E33.8598 F100
G1 X120 Y101.178398 Z0.5 E34.3042 F100
G1 X120 Y98.95137 Z0.5 E34.7487 F100
G1 X120 Y96.724341 Z0.5 E35.1931 F100
G1 X120 Y94.497313 Z0.5 E35.6375 F100
G1 X120 Y92.270285 Z0.5 E36.0819 F100
G1 X120 Y90.043256 Z0.5 E36.5264 F100
G1 X120 Y87.816228 Z0.5 E36.9708 F100
G1 X120 Y85.589199 Z0.5 E37.4152 F100
G1 X120 Y83.362171 Z0.5 E37.8597 F100
G1 X120 Y81.135142 Z0.5 E38.3041 F100
G1 X120 Y78.908114 Z0.5 E38.7485 F100
G1 X120 Y76.681085 Z0.5 E39.1929 F100
G1 X120 Y74.454057 Z0.5 E39.6374 F100
G1 X120 Y72.227028 Z0.5 E40.0818 F100
G1 X120 Y70 Z0.5 E40.5262 F100
G1 X119.751667 Y67.786943 Z0.5 E40.9706 F100
G1 X119.01974 Y65.6838 Z0.5 E41.415 F100
G1 X117.840552 Y63.794864 Z0.5 E41.8594 F100
G1 X116.272615 Y62.213796 Z0.5 E42.3038 F100
G1 X114.393715 Y61.018983 Z0.5 E42.7481 F100
G1 X112.297054 Y60.269652 Z0.5 E43.1924 F100
G1 X110.086511 Y60.000475 Z0.5 E43.6368 F100
G1 X107.859484 Y60 Z0.5 E44.0813 F100
G1 X105.632455 Y60.0 Z0.5 E44.5257 F100
G1 X103.405427 Y60 Z0.5 E44.9701 F100
G1 X101.178398 Y60 Z0.5 E45.4145 F100
G1 X98.95137 Y60 Z0.5 E45.859 F100
G1 X96.724341 Y60.0 Z0.5 E46.3034 F100
G1 X94.497313 Y60 Z0.5 E46.7478 F100
G1 X92.270285 Y60 Z0.5 E47.1923 F100
G1 X90.043256 Y60 Z0.5 E47.6367 F100
G1 X87.816228 Y60 Z0.5 E48.0811 F100
G1 X85.589199 Y60 Z0.5 E48.5255 F100
G1 X83.362171 Y60 Z0.5 E48.97 F100
G1 X81.135142 Y60 Z0.5 E49.4144 F100
G1 X78.908114 Y60 Z0.5 E49.8588 F100
G1 X76.681085 Y60.0 Z0.5 E50.3033 F100
G1 X74.454057 Y60.0 Z0.5 E50.7477 F100
G1 X72.227028 Y60.0 Z0.5 E51.1921 F100
G1 X70 Y60 Z0.9 E51.6436 F100
G1 X67.293324 Y60.419756 Z0.943276 E52.1903 F100
G1 X64.796989 Y61.532645 Z0.9 E52.7358 F100
G1 X62.680329 Y63.26182 Z1.029827 E53.2819 F100
G1 X61.089631 Y65.488778 Z0.9 E53.8286 F100
G1 X60.222569 Y68.085721 Z1.116378 E54.3767 F100
G1 X60 Y70.820796 Z0.9 E54.926 F100
G1 X60 Y73.568081 Z1.237781 E55.4784 F100
G1 X60 Y76.319631 Z0.9 E56.0316 F100
G1 X60 Y79.067215 Z1.324154 E56.5864 F100
G1 X60 Y81.818467 Z0.9 E57.142 F100
G1 X60 Y84.566349 Z1.410526 E57.6997 F100
G1 X60 Y87.317303 Z0.9 E58.2581 F100
G1 X60 Y90.065483 Z1.496899 E58.8193 F100
G1 X60.0 Y92.816138 Z0.9 E59.381 F100
G1 X60 Y95.564617 Z1.583271 E59.9462 F100
G1 X60 Y98.314974 Z0.9 E60.5117 F100
G1 X60.0 Y101.06375 Z1.669643 E61.0814 F100
G1 X60.0 Y103.81381 Z0.9 E61.6512 F100
G1 X60 Y106.562884 Z1.756016 E62.2258 F100
G1 X60 Y109.312646 Z0.9 E62.8006 F100
G1 X60.229267 Y112.049232 Z1.842455 E63.38 F100
G1 X61.169234 Y114.619583 Z0.9 E63.9576 F100
G1 X62.778324 Y116.830841 Z1.929007 E64.5407 F100
G1 X64.909373 Y118.540578 Z0.9 E65.1233 F100
G1 X67.417843 Y119.632493 Z2.015558 E65.7129 F100
G1 X70.133441 Y120 Z0.9 E66.3034 F100
G1 X72.880532 Y120 Z2.136984 E66.9046 F100
G1 X75.632277 Y120 Z0.9 E67.5067 F100
G1 X78.379666 Y120 Z2.223356 E68.1152 F100
G1 X81.131113 Y120 Z0.9 E68.7245 F100
G1 X83.8788 Y120 Z2.309728 E69.3408 F100
G1 X86.629948 Y120 Z0.9 E69.9577 F100
G1 X89.377934 Y120 Z2.396101 E70.5821 F100
G1 X92.128784 Y120 Z0.9 E71.207 F100
G1 X94.877068 Y120 Z2.482473 E71.8399 F100
G1 X97.62762 Y120 Z0.9 E72.4731 F100
G1 X100.376202 Y120 Z2.568845 E73.1148 F100
G1 X103.126455 Y120 Z0.9 E73.7568 F100
G1 X105.875335 Y120 Z2.655218 E74.4077 F100
G1 X108.625291 Y120 Z0.9 E75.0587 F100
G1 X111.365947 Y119.847179 Z2.741635 E75.7184 F100
G1 X114.005165 Y119.129308 Z0.9 E76.3764 F100
G1 X116.34201 Y117.705172 Z2.828186 E77.0444 F100
G1 X118.170787 Y115.670033 Z0.9 E77.7124 F100
G1 X119.399824 Y113.22914 Z2.914738 E78.39 F100
G1 X119.945171 Y110.550589 Z0.9 E79.0676 F100
G1 X120 Y107.807016 Z3.036186 E79.7616 F100
G1 X120 Y105.055077 Z0.9 E80.4569 F100
G1 X120 Y102.307883 Z3.122558 E81.162 F100
G1 X120 Y99.556242 Z0.9 E81.8679 F100
G1 X120 Y96.808749 Z3.20893 E82.5841 F100
G1 X120 Y94.057406 Z0.9 E83.3009 F100
G1 X120 Y91.309615 Z3.295303 E84.0283 F100
G1 X120 Y88.55857 Z0.9 E84.7563 F100
G1 X120 Y85.810481 Z3.381675 E85.4952 F100
G1 X120 Y83.059735 Z0.9 E86.2345 F100
G1 X120 Y80.311347 Z3.468048 E86.9852 F100
G1 X120 Y77.560899 Z0.9 E87.7361 F100
G1 X120 Y74.812213 Z3.55442 E88.4987 F100
G1 X120 Y72.062063 Z0.9 E89.2614 F100
G1 X119.923624 Y69.317339 Z3.640815 E90.0356 F100
G1 X119.3548 Y66.644149 Z0.9 E90.8081 F100
G1 X118.104017 Y64.213677 Z3.727366 E91.5929 F100
G1 X116.249438 Y62.199004 Z0.9 E92.3783 F100
G1 X113.876124 Y60.832846 Z3.813917 E93.1763 F100
G1 X111.232802 Y60.138744 Z0.9 E93.9736 F100
G1 X108.494561 Y60.0 Z3.93489 E94.7898 F100
G1 X105.742432 Y60.0 Z0.9 E95.6074 F100
G1 X102.995431 Y60.0 Z4.02176 E96.4372 F100
G1 X100.243596 Y60 Z0.9 E97.2677 F100
G1 X97.496298 Y60 Z4.108132 E98.1105 F100
G1 X94.744761 Y60 Z0.9 E98.954 F100
G1 X91.997164 Y60 Z4.194505 E99.8101 F100
G1 X89.245925 Y60 Z0.9 E100.6666 F100
G1 X86.49803 Y60.0 Z4.280877 E101.5361 F100
G1 X83.747089 Y60 Z0.9 E102.4059 F100
G1 X80.998886 Y60.0 Z4.365 E103.2885 F100
G1 X78.248254 Y60 Z0.9 E104.1713 F100
G1 X75.499364 Y60.0 Z4.365 E105.054 F100
G1 X72.749418 Y60.0 Z0.9 E105.9368 F100
G1 X70 Y60.0 Z4.4 E106.8249 F100
G1 X67.293384 Y60.419735 Z0.924729 E107.708 F100
G1 X64.796845 Y61.532734 Z4.449458 E108.5981 F100
G1 X62.680465 Y63.261685 Z0.974187 E109.4804 F100
G1 X61.089449 Y65.489064 Z4.498916 E110.371 F100
G1 X60.222608 Y68.085406 Z1.023645 E111.2538 F100
G1 X60 Y70.819498 Z4.567736 E112.1481 F100
G1 X60 Y73.568995 Z1.093018 E113.0324 F100
G1 X60 Y76.318498 Z4.617696 E113.9245 F100
G1 X60 Y79.068001 Z1.142374 E114.8088 F100
G1 X60 Y81.817504 Z4.667051 E115.7009 F100
G1 X60 Y84.567007 Z1.191729 E116.5852 F100
G1 X60 Y87.31651 Z4.716407 E117.4773 F100
G1 X60 Y90.066013 Z1.241085 E118.3617 F100
G1 X60.0 Y92.815516 Z4.765763 E119.2538 F100
G1 X60 Y95.565019 Z1.290441 E120.1381 F100
G1 X60.0 Y98.314522 Z4.815118 E121.0302 F100
G1 X60.0 Y101.064025 Z1.339796 E121.9145 F100
G1 X60.0 Y103.813528 Z4.864474 E122.8066 F100
G1 X60 Y106.563031 Z1.389152 E123.691 F100
G1 X60 Y109.312534 Z4.91383 E124.583 F100
G1 X60.229269 Y112.049252 Z1.438546 E125.467 F100
G1 X61.169265 Y114.619632 Z4.963275 E126.3575 F100
G1 X62.778248 Y116.830764 Z1.488004 E127.24 F100
G1 X64.909565 Y118.540701 Z5.012733 E128.13 F100
G1 X67.417622 Y119.632414 Z1.537462 E129.0126 F100
G1 X70.132035 Y120 Z5.081246 E129.9064 F100
G1 X72.88153 Y120 Z1.606848 E130.7906 F100
G1 X75.631033 Y120 Z5.131526 E131.6827 F100
G1 X78.380536 Y120 Z1.656203 E132.5671 F100
G1 X81.130039 Y120 Z5.180881 E133.4592 F100
G1 X83.879542 Y120 Z1.705559 E134.3435 F100
G1 X86.629045 Y120 Z5.230237 E135.2356 F100
G1 X89.378548 Y120 Z1.754915 E136.1199 F100
G1 X92.128051 Y120 Z5.279593 E137.012 F100
G1 X94.877554 Y120 Z1.80427 E137.8964 F100
G1 X97.627057 Y120 Z5.328948 E138.7884 F100
G1 X100.37656 Y120 Z1.853626 E139.6728 F100
G1 X103.126063 Y120 Z5.378304 E140.5649 F100
G1 X105.875566 Y120 Z1.902982 E141.4492 F100
G1 X108.625069 Y120 Z5.427659 E142.3413 F100
G1 X111.366049 Y119.847167 Z1.952363 E143.2251 F100
G1 X114.005115 Y119.129325 Z5.477092 E144.1154 F100
G1 X116.341993 Y117.705189 Z2.001821 E144.9982 F100
G1 X118.17085 Y115.669934 Z5.52655 E145.8886 F100
G1 X119.399772 Y113.229283 Z2.051279 E146.7709 F100
G1 X119.945206 Y110.550305 Z5.576008 E147.6611 F100
G1 X120 Y107.805936 Z2.120677 E148.5417 F100
G1 X120 Y105.056433 Z5.645355 E149.4338 F100
G1 X120 Y102.30693 Z2.170033 E150.3181 F100
G1 X120 Y99.557427 Z5.694711 E151.2102 F100
G1 X120 Y96.807924 Z2.219389 E152.0946 F100
G1 X120 Y94.058421 Z5.744067 E152.9866 F100
G1 X120 Y91.308918 Z2.268744 E153.871 F100
G1 X120 Y88.559415 Z5.793422 E154.7631 F100
G1 X120 Y85.809912 Z2.3181 E155.6474 F100
G1 X120 Y83.060409 Z5.842778 E156.5395 F100
G1 X120 Y80.310906 Z2.367456 E157.4238 F100
G1 X120 Y77.561403 Z5.892134 E158.3159 F100
G1 X120 Y74.8119 Z2.416811 E159.2003 F100
G1 X120 Y72.062397 Z5.941489 E160.0924 F100
G1 X119.923604 Y69.317154 Z2.46618 E160.9763 F100
G1 X119.354854 Y66.644304 Z5.990909 E161.8663 F100
G1 X118.103986 Y64.213627 Z2.515638 E162.7487 F100
G1 X116.249433 Y62.199001 Z6.040367 E163.6394 F100
G1 X113.876188 Y60.832869 Z2.565096 E164.5224 F100
G1 X111.232628 Y60.138723 Z6.089825 E165.4125 F100
G1 X108.493399 Y60 Z2.634223 E166.2929 F100
G1 X105.743898 Y60.0 Z6.159185 E167.185 F100
G1 X102.994395 Y60 Z2.683863 E168.0694 F100
G1 X100.244892 Y60 Z6.208541 E168.9614 F100
G1 X97.495389 Y60 Z2.733219 E169.8458 F100
G1 X94.745886 Y60 Z6.257896 E170.7379 F100
G1 X91.996383 Y60 Z2.782574 E171.6222 F100
G1 X89.24688 Y60 Z6.307252 E172.5143 F100
G1 X86.497377 Y60.0 Z2.83193 E173.3986 F100
G1 X83.747874 Y60 Z6.356608 E174.2907 F100
G1 X80.998365 Y60 Z2.88 E175.1753 F100
G1 X78.248752 Y60.0 Z6.38 E176.0635 F100
G1 X75.499138 Y60.0 Z2.88 E176.9517 F100
G1 X72.749524 Y60.0 Z6.38 E177.8399 F100
G1 X70 Y60.0 Z2.9 E178.725 F100
G1 X67.293384 Y60.419735 Z6.424729 E179.6158 F100
G1 X64.796845 Y61.532734 Z2.949458 E180.4982 F100
G1 X62.680465 Y63.261685 Z6.474187 E181.3882 F100
G1 X61.089449 Y65.489064 Z2.998916 E182.271 F100
G1 X60.222608 Y68.085406 Z6.523645 E183.1616 F100
G1 X60 Y70.819498 Z3.067736 E184.0421 F100
G1 X60 Y73.568995 Z6.593018 E184.9343 F100
G1 X60 Y76.318498 Z3.117696 E185.8187 F100
G1 X60 Y79.068001 Z6.642374 E186.7107 F100
G1 X60 Y81.817504 Z3.167051 E187.5951 F100
G1 X60.0 Y84.567007 Z6.691729 E188.4872 F100
G1 X60 Y87.31651 Z3.216407 E189.3715 F100
G1 X60 Y90.066013 Z6.741085 E190.2636 F100
G1 X60.0 Y92.815516 Z3.265763 E191.1479 F100
G1 X60 Y95.565019 Z6.790441 E192.04 F100
G1 X60.0 Y98.314522 Z3.315118 E192.9244 F100
G1 X60.0 Y101.064025 Z6.839796 E193.8165 F100
G1 X60.0 Y103.813528 Z3.364474 E194.7008 F100
G1 X60 Y106.563031 Z6.889152 E195.5929 F100
G1 X60 Y109.312534 Z3.41383 E196.4772 F100
G1 X60.229269 Y112.049252 Z6.938546 E197.3689 F100
G1 X61.169265 Y114.619632 Z3.463275 E198.2517 F100
G1 X62.778248 Y116.830764 Z6.988004 E199.142 F100
G1 X64.909565 Y118.540701 Z3.512733 E200.0242 F100
G1 X67.417622 Y119.632414 Z7.037462 E200.9145 F100
G1 X70.132035 Y120 Z3.581246 E201.7946 F100
G1 X72.88153 Y120 Z7.106848 E202.6869 F100
G1 X75.631033 Y120 Z3.631526 E203.5712 F100
G1 X78.380536 Y120 Z7.156203 E204.4633 F100
G1 X81.130039 Y120 Z3.680881 E205.3476 F100
G1 X83.879542 Y120 Z7.205559 E206.2397 F100
G1 X86.629045 Y120 Z3.730237 E207.124 F100
G1 X89.378548 Y120 Z7.254915 E208.0161 F100
G1 X92.128051 Y120 Z3.779593 E208.9005 F100
G1 X94.877554 Y120 Z7.30427 E209.7926 F100
G1 X97.627057 Y120 Z3.828948 E210.6769 F100
G1 X100.37656 Y120 Z7.353626 E211.569 F100
G1 X103.126063 Y120 Z3.878304 E212.4533 F100
G1 X105.875566 Y120 Z7.402982 E213.3454 F100
G1 X108.625069 Y120 Z3.927659 E214.2298 F100
G1 X111.366049 Y119.847167 Z7.452363 E215.1213 F100
G1 X114.005115 Y119.129325 Z3.977092 E216.0039 F100
G1 X116.341993 Y117.705189 Z7.501821 E216.8944 F100
G1 X118.17085 Y115.669934 Z4.02655 E217.7771 F100
G1 X119.399772 Y113.229283 Z7.551279 E218.6671 F100
G1 X119.945206 Y110.550305 Z4.076008 E219.5495 F100
G1 X120 Y107.805936 Z7.620677 E220.4442 F100
G1 X120 Y105.056433 Z4.145355 E221.3285 F100
G1 X120 Y102.30693 Z7.670033 E222.2206 F100
G1 X120 Y99.557427 Z4.194711 E223.1049 F100
G1 X120 Y96.807924 Z7.719389 E223.997 F100
G1 X120 Y94.058421 Z4.244067 E224.8814 F100
G1 X120 Y91.308918 Z7.768744 E225.7735 F100
G1 X120 Y88.559415 Z4.293422 E226.6578 F100
G1 X120 Y85.809912 Z7.8181 E227.5499 F100
G1 X120 Y83.060409 Z4.342778 E228.4342 F100
G1 X120 Y80.310906 Z7.867456 E229.3263 F100
G1 X120 Y77.561403 Z4.392134 E230.2107 F100
G1 X120 Y74.8119 Z7.916811 E231.1027 F100
G1 X120 Y72.062397 Z4.441489 E231.9871 F100
G1 X119.923604 Y69.317154 Z7.96618 E232.8788 F100
G1 X119.354854 Y66.644304 Z4.490909 E233.761 F100
G1 X118.103986 Y64.213627 Z8.015638 E234.6512 F100
G1 X116.249433 Y62.199001 Z4.540367 E235.5341 F100
G1 X113.876188 Y60.832869 Z8.065096 E236.4249 F100
G1 X111.232628 Y60.138723 Z4.589825 E237.3072 F100
G1 X108.493399 Y60 Z8.134223 E238.2015 F100
G1 X105.743898 Y60.0 Z4.659185 E239.0858 F100
G1 X102.994395 Y60 Z8.183863 E239.9779 F100
G1 X100.244892 Y60 Z4.708541 E240.8623 F100
G1 X97.495389 Y60 Z8.233219 E241.7543 F100
G1 X94.745886 Y60 Z4.757896 E242.6387 F100
G1 X91.996383 Y60 Z8.282574 E243.5308 F100
G1 X89.24688 Y60 Z4.807252 E244.4151 F100
G1 X86.497377 Y60 Z8.33193 E245.3072 F100
G1 X83.747874 Y60 Z4.856608 E246.1915 F100
G1 X80.998365 Y60 Z8.38 E247.0834 F100
G1 X78.248752 Y60.0 Z4.88 E247.9717 F100
G1 X75.499138 Y60.0 Z8.38 E248.8599 F100
G1 X72.749524 Y60.0 Z4.88 E249.7481 F100
G1 X70 Y60 Z8.4 E250.6394 F100
G1 X67.293384 Y60.419735 Z4.924729 E251.5225 F100
G1 X64.796845 Y61.532734 Z8.449458 E252.4126 F100
G1 X62.680465 Y63.261685 Z4.974187 E253.2949 F100
G1 X61.089449 Y65.489064 Z8.498916 E254.1855 F100
G1 X60.222608 Y68.085406 Z5.023645 E255.0683 F100
G1 X60 Y70.819498 Z8.567736 E255.9626 F100
G1 X60 Y73.568995 Z5.093018 E256.8469 F100
G1 X60 Y76.318498 Z8.617696 E257.739 F100
G1 X60 Y79.068001 Z5.142374 E258.6233 F100
G1 X60.0 Y81.817504 Z8.667051 E259.5154 F100
G1 X60.0 Y84.567007 Z5.191729 E260.3997 F100
G1 X60 Y87.31651 Z8.716407 E261.2918 F100
G1 X60 Y90.066013 Z5.241085 E262.1762 F100
G1 X60.0 Y92.815516 Z8.765763 E263.0683 F100
G1 X60 Y95.565019 Z5.290441 E263.9526 F100
G1 X60.0 Y98.314522 Z8.815118 E264.8447 F100
G1 X60.0 Y101.064025 Z5.339796 E265.729 F100
G1 X60.0 Y103.813528 Z8.864474 E266.6211 F100
G1 X60 Y106.563031 Z5.389152 E267.5055 F100
G1 X60 Y109.312534 Z8.91383 E268.3975 F100
G1 X60.229269 Y112.049252 Z5.438546 E269.2815 F100
G1 X61.169265 Y114.619632 Z8.963275 E270.172 F100
G1 X62.778248 Y116.830764 Z5.488004 E271.0545 F100
G1 X64.909565 Y118.540701 Z9.012733 E271.9445 F100
G1 X67.417622 Y119.632414 Z5.537462 E272.8271 F100
G1 X70.132035 Y120 Z9.081246 E273.7209 F100
G1 X72.88153 Y120 Z5.606848 E274.6051 F100
G1 X75.631033 Y120 Z9.131526 E275.4972 F100
G1 X78.380536 Y120 Z5.656203 E276.3816 F100
G1 X81.130039 Y120 Z9.180881 E277.2737 F100
G1 X83.879542 Y120 Z5.705559 E278.158 F100
G1 X86.629045 Y120 Z9.230237 E279.0501 F100
G1 X89.378548 Y120 Z5.754915 E279.9344 F100
G1 X92.128051 Y120 Z9.279593 E280.8265 F100
G1 X94.877554 Y120 Z5.80427 E281.7109 F100
G1 X97.627057 Y120 Z9.328948 E282.6029 F100
G1 X100.37656 Y120 Z5.853626 E283.4873 F100
G1 X103.126063 Y120 Z9.378304 E284.3794 F100
G1 X105.875566 Y120 Z5.902982 E285.2637 F100
G1 X108.625069 Y120 Z9.427659 E286.1558 F100
G1 X111.366049 Y119.847167 Z5.952363 E287.0396 F100
G1 X114.005115 Y119.129325 Z9.477092 E287.9299 F100
G1 X116.341993 Y117.705189 Z6.001821 E288.8127 F100
G1 X118.17085 Y115.669934 Z9.52655 E289.7031 F100
G1 X119.399772 Y113.229283 Z6.051279 E290.5854 F100
G1 X119.945206 Y110.550305 Z9.576008 E291.4756 F100
G1 X120 Y107.805936 Z6.120677 E292.3562 F100
G1 X120 Y105.056433 Z9.645355 E293.2483 F100
G1 X120 Y102.30693 Z6.170033 E294.1326 F100
G1 X120 Y99.557427 Z9.694711 E295.0247 F100
G1 X120 Y96.807924 Z6.219389 E295.9091 F100
G1 X120 Y94.058421 Z9.744067 E296.8011 F100
G1 X120 Y91.308918 Z6.268744 E297.6855 F100
G1 X120 Y88.559415 Z9.793422 E298.5776 F100
G1 X120 Y85.809912 Z6.3181 E299.4619 F100
G1 X120 Y83.060409 Z9.842778 E300.354 F100
G1 X120 Y80.310906 Z6.367456 E301.2383 F100
G1 X120 Y77.561403 Z9.892134 E302.1304 F100
G1 X120 Y74.8119 Z6.416811 E303.0148 F100
G1 X120 Y72.062397 Z9.941489 E303.9068 F100
G1 X119.923604 Y69.317154 Z6.46618 E304.7908 F100
G1 X119.354854 Y66.644304 Z9.990909 E305.6808 F100
G1 X118.103986 Y64.213627 Z6.515638 E306.5632 F100
G1 X116.249433 Y62.199001 Z10.040367 E307.4539 F100
G1 X113.876188 Y60.832869 Z6.565096 E308.3369 F100
G1 X111.232628 Y60.138723 Z10.089825 E309.227 F100
G1 X108.493399 Y60 Z6.634223 E310.1074 F100
G1 X105.743898 Y60.0 Z10.159185 E310.9995 F100
G1 X102.994395 Y60 Z6.683863 E311.8839 F100
G1 X100.244892 Y60 Z10.208541 E312.7759 F100
G1 X97.495389 Y60 Z6.733219 E313.6603 F100
G1 X94.745886 Y60 Z10.257896 E314.5524 F100
G1 X91.996383 Y60 Z6.782574 E315.4367 F100
G1 X89.24688 Y60 Z10.307252 E316.3288 F100
G1 X86.497377 Y60 Z6.83193 E317.2131 F100
G1 X83.747874 Y60 Z10.356608 E318.1052 F100
G1 X80.998365 Y60 Z6.88 E318.9898 F100
G1 X78.248752 Y60 Z10.38 E319.878 F100
G1 X75.499138 Y60.0 Z6.88 E320.7662 F100
G1 X72.749524 Y60.0 Z10.38 E321.6544 F100
G1 X70 Y60 Z6.9 E322.5395 F100
G1 X67.293384 Y60.419735 Z10.424729 E323.4303 F100
G1 X64.796845 Y61.532734 Z6.949458 E324.3127 F100
G1 X62.680465 Y63.261685 Z10.474187 E325.2027 F100
G1 X61.089449 Y65.489064 Z6.998916 E326.0855 F100
G1 X60.222608 Y68.085406 Z10.523645 E326.9761 F100
G1 X60 Y70.819498 Z7.067736 E327.8566 F100
G1 X60 Y73.568995 Z10.593018 E328.7488 F100
G1 X60 Y76.318498 Z7.117696 E329.6332 F100
G1 X60.0 Y79.068001 Z10.642374 E330.5252 F100
G1 X60.0 Y81.817504 Z7.167051 E331.4096 F100
G1 X60 Y84.567007 Z10.691729 E332.3017 F100
G1 X60 Y87.31651 Z7.216407 E333.186 F100
G1 X60 Y90.066013 Z10.741085 E334.0781 F100
G1 X60.0 Y92.815516 Z7.265763 E334.9624 F100
G1 X60 Y95.565019 Z10.790441 E335.8545 F100
G1 X60.0 Y98.314522 Z7.315118 E336.7389 F100
G1 X60.0 Y101.064025 Z10.839796 E337.631 F100
G1 X60.0 Y103.813528 Z7.364474 E338.5153 F100
G1 X60 Y106.563031 Z10.889152 E339.4074 F100
G1 X60 Y109.312534 Z7.41383 E340.2917 F100
G1 X60.229269 Y112.049252 Z10.938546 E341.1834 F100
G1 X61.169265 Y114.619632 Z7.463275 E342.0662 F100
G1 X62.778248 Y116.830764 Z10.988004 E342.9565 F100
G1 X64.909565 Y118.540701 Z7.512733 E343.8387 F100
G1 X67.417622 Y119.632414 Z11.037462 E344.729 F100
G1 X70.132035 Y120 Z7.581246 E345.6091 F100
G1 X72.88153 Y120 Z11.106848 E346.5014 F100
G1 X75.631033 Y120 Z7.631526 E347.3857 F100
G1 X78.380536 Y120 Z11.156203 E348.2778 F100
G1 X81.130039 Y120 Z7.680881 E349.1621 F100
G1 X83.879542 Y120 Z11.205559 E350.0542 F100
G1 X86.629045 Y120 Z7.730237 E350.9385 F100
G1 X89.378548 Y120 Z11.254915 E351.8306 F100
G1 X92.128051 Y120 Z7.779593 E352.715 F100
G1 X94.877554 Y120 Z11.30427 E353.6071 F100
G1 X97.627057 Y120 Z7.828948 E354.4914 F100
G1 X100.37656 Y120 Z11.353626 E355.3835 F100
G1 X103.126063 Y120 Z7.878304 E356.2678 F100
G1 X105.875566 Y120 Z11.402982 E357.1599 F100
G1 X108.625069 Y120 Z7.927659 E358.0443 F100
G1 X111.366049 Y119.847167 Z11.452363 E358.9358 F100
G1 X114.005115 Y119.129325 Z7.977092 E359.8184 F100
G1 X116.341993 Y117.705189 Z11.501821 E360.7089 F100
G1 X118.17085 Y115.669934 Z8.02655 E361.5916 F100
G1 X119.399772 Y113.229283 Z11.551279 E362.4816 F100
G1 X119.945206 Y110.550305 Z8.076008 E363.364 F100
G1 X120 Y107.805936 Z11.620677 E364.2587 F100
G1 X120 Y105.056433 Z8.145355 E365.143 F100
G1 X120 Y102.30693 Z11.670033 E366.0351 F100
G1 X120 Y99.557427 Z8.194711 E366.9194 F100
G1 X120 Y96.807924 Z11.719389 E367.8115 F100
G1 X120 Y94.058421 Z8.244067 E368.6959 F100
G1 X120 Y91.308918 Z11.768744 E369.588 F100
G1 X120 Y88.559415 Z8.293422 E370.4723 F100
G1 X120 Y85.809912 Z11.8181 E371.3644 F100
G1 X120 Y83.060409 Z8.342778 E372.2487 F100
G1 X120 Y80.310906 Z11.867456 E373.1408 F100
G1 X120 Y77.561403 Z8.392134 E374.0252 F100
G1 X120 Y74.8119 Z11.916811 E374.9172 F100
G1 X120 Y72.062397 Z8.441489 E375.8016 F100
G1 X119.923604 Y69.317154 Z11.96618 E376.6933 F100
G1 X119.354854 Y66.644304 Z8.490909 E377.5755 F100
G1 X118.103986 Y64.213627 Z12.015638 E378.4657 F100
G1 X116.249433 Y62.199001 Z8.540367 E379.3486 F100
G1 X113.876188 Y60.832869 Z12.065096 E380.2394 F100
G1 X111.232628 Y60.138723 Z8.589825 E381.1217 F100
G1 X108.493399 Y60 Z12.134223 E382.016 F100
G1 X105.743898 Y60.0 Z8.659185 E382.9003 F100
G1 X102.994395 Y60 Z12.183863 E383.7924 F100
G1 X100.244892 Y60 Z8.708541 E384.6768 F100
G1 X97.495389 Y60 Z12.233219 E385.5688 F100
G1 X94.745886 Y60 Z8.757896 E386.4532 F100
G1 X91.996383 Y60 Z12.282574 E387.3453 F100
G1 X89.24688 Y60 Z8.807252 E388.2296 F100
G1 X86.497377 Y60 Z12.33193 E389.1217 F100
G1 X83.747874 Y60 Z8.856608 E390.006 F100
G1 X80.998365 Y60 Z12.38 E390.8979 F100
G1 X78.248752 Y60 Z8.88 E391.7861 F100
G1 X75.499138 Y60 Z12.38 E392.6744 F100
G1 X72.749524 Y60.0 Z8.88 E393.5626 F100
G1 X70 Y60 Z12.4 E394.4539 F100
G1 X67.293384 Y60.419735 Z8.924729 E395.337 F100
G1 X64.796845 Y61.532734 Z12.449458 E396.2271 F100
G1 X62.680465 Y63.261685 Z8.974187 E397.1094 F100
G1 X61.089449 Y65.489064 Z12.498916 E398 F100
G1 X60.222608 Y68.085406 Z9.023645 E398.8828 F100
G1 X60 Y70.819498 Z12.567736 E399.7771 F100
G1 X60 Y73.568995 Z9.093018 E400.6614 F100
G1 X60 Y76.318498 Z12.617696 E401.5535 F100
G1 X60 Y79.068001 Z9.142374 E402.4378 F100
G1 X60 Y81.817504 Z12.667051 E403.3299 F100
G1 X60 Y84.567007 Z9.191729 E404.2142 F100
G1 X60 Y87.31651 Z12.716407 E405.1063 F100
G1 X60 Y90.066013 Z9.241085 E405.9907 F100
G1 X60.0 Y92.815516 Z12.765763 E406.8828 F100
G1 X60 Y95.565019 Z9.290441 E407.7671 F100
G1 X60 Y98.314522 Z12.815118 E408.6592 F100
G1 X60.0 Y101.064025 Z9.339796 E409.5435 F100
G1 X60.0 Y103.813528 Z12.864474 E410.4356 F100
G1 X60 Y106.563031 Z9.389152 E411.32 F100
G1 X60 Y109.312534 Z12.91383 E412.212 F100
G1 X60.229269 Y112.049252 Z9.438546 E413.096 F100
G1 X61.169265 Y114.619632 Z12.963275 E413.9865 F100
G1 X62.778248 Y116.830764 Z9.488004 E414.869 F100
G1 X64.909565 Y118.540701 Z13.012733 E415.759 F100
G1 X67.417622 Y119.632414 Z9.537462 E416.6416 F100
G1 X70.132035 Y120 Z13.081246 E417.5354 F100
G1 X72.88153 Y120 Z9.606848 E418.4196 F100
G1 X75.631033 Y120 Z13.131526 E419.3117 F100
G1 X78.380536 Y120 Z9.656203 E420.1961 F100
G1 X81.130039 Y120 Z13.180881 E421.0882 F100
G1 X83.879542 Y120 Z9.705559 E421.9725 F100
G1 X86.629045 Y120 Z13.230237 E422.8646 F100
G1 X89.378548 Y120 Z9.754915 E423.7489 F100
G1 X92.128051 Y120 Z13.279593 E424.641 F100
G1 X94.877554 Y120 Z9.80427 E425.5253 F100
G1 X97.627057 Y120 Z13.328948 E426.4174 F100
G1 X100.37656 Y120 Z9.853626 E427.3018 F100
G1 X103.126063 Y120 Z13.378304 E428.1939 F100
G1 X105.875566 Y120 Z9.902982 E429.0782 F100
G1 X108.625069 Y120 Z13.427659 E429.9703 F100
G1 X111.366049 Y119.847167 Z9.952363 E430.8541 F100
G1 X114.005115 Y119.129325 Z13.477092 E431.7444 F100
G1 X116.341993 Y117.705189 Z10.001821 E432.6272 F100
G1 X118.17085 Y115.669934 Z13.52655 E433.5176 F100
G1 X119.399772 Y113.229283 Z10.051279 E434.3999 F100
G1 X119.945206 Y110.550305 Z13.576008 E435.2901 F100
G1 X120 Y107.805936 Z10.120677 E436.1707 F100
G1 X120 Y105.056433 Z13.645355 E437.0628 F100
G1 X120 Y102.30693 Z10.170033 E437.9471 F100
G1 X120 Y99.557427 Z13.694711 E438.8392 F100
G1 X120 Y96.807924 Z10.219389 E439.7236 F100
G1 X120 Y94.058421 Z13.744067 E440.6156 F100
G1 X120 Y91.308918 Z10.268744 E441.5 F100
G1 X120 Y88.559415 Z13.793422 E442.3921 F100
G1 X120 Y85.809912 Z10.3181 E443.2764 F100
G1 X120 Y83.060409 Z13.842778 E444.1685 F100
G1 X120 Y80.310906 Z10.367456 E445.0528 F100
G1 X120 Y77.561403 Z13.892134 E445.9449 F100
G1 X120 Y74.8119 Z10.416811 E446.8293 F100
G1 X120 Y72.062397 Z13.941489 E447.7213 F100
G1 X119.923604 Y69.317154 Z10.46618 E448.6053 F100
G1 X119.354854 Y66.644304 Z13.990909 E449.4953 F100
G1 X118.103986 Y64.213627 Z10.515638 E450.3777 F100
G1 X116.249433 Y62.199001 Z14.040367 E451.2684 F100
G1 X113.876188 Y60.832869 Z10.565096 E452.1514 F100
G1 X111.232628 Y60.138723 Z14.089825 E453.0415 F100
G1 X108.493399 Y60 Z10.634223 E453.9219 F100
G1 X105.743898 Y60.0 Z14.159185 E454.814 F100
G1 X102.994395 Y60 Z10.683863 E455.6984 F100
G1 X100.244892 Y60 Z14.208541 E456.5904 F100
G1 X97.495389 Y60 Z10.733219 E457.4748 F100
G1 X94.745886 Y60 Z14.257896 E458.3669 F100
G1 X91.996383 Y60 Z10.782574 E459.2512 F100
G1 X89.24688 Y60 Z14.307252 E460.1433 F100
G1 X86.497377 Y60 Z10.83193 E461.0276 F100
G1 X83.747874 Y60.0 Z14.356608 E461.9197 F100
G1 X80.998365 Y60 Z10.88 E462.8043 F100
G1 X78.248752 Y60 Z14.38 E463.6925 F100
G1 X75.499138 Y60 Z10.88 E464.5807 F100
G1 X72.749524 Y60.0 Z14.38 E465.4689 F100
G1 X70 Y60 Z10.9 E466.354 F100
G1 X67.293384 Y60.419735 Z14.424729 E467.2448 F100
G1 X64.796845 Y61.532734 Z10.949458 E468.1272 F100
G1 X62.680465 Y63.261685 Z14.474187 E469.0172 F100
G1 X61.089449 Y65.489064 Z10.998916 E469.9 F100
G1 X60.222608 Y68.085406 Z14.523645 E470.7906 F100
G1 X60 Y70.819498 Z11.067736 E471.6711 F100
G1 X60 Y73.568995 Z14.593018 E472.5633 F100
G1 X60 Y76.318498 Z11.117696 E473.4477 F100
G1 X60 Y79.068001 Z14.642374 E474.3397 F100
G1 X60 Y81.817504 Z11.167051 E475.2241 F100
G1 X60 Y84.567007 Z14.691729 E476.1162 F100
G1 X60 Y87.31651 Z11.216407 E477.0005 F100
G1 X60 Y90.066013 Z14.741085 E477.8926 F100
G1 X60.0 Y92.815516 Z11.265763 E478.7769 F100
G1 X60 Y95.565019 Z14.790441 E479.669 F100
G1 X60 Y98.314522 Z11.315118 E480.5534 F100
G1 X60.0 Y101.064025 Z14.839796 E481.4455 F100
G1 X60.0 Y103.813528 Z11.364474 E482.3298 F100
G1 X60 Y106.563031 Z14.889152 E483.2219 F100
G1 X60 Y109.312534 Z11.41383 E484.1062 F100
G1 X60.229269 Y112.049252 Z14.938546 E484.9979 F100
G1 X61.169265 Y114.619632 Z11.463275 E485.8807 F100
G1 X62.778248 Y116.830764 Z14.988004 E486.771 F100
G1 X64.909565 Y118.540701 Z11.512733 E487.6532 F100
G1 X67.417622 Y119.632414 Z15.037462 E488.5435 F100
G1 X70.132035 Y120 Z11.581246 E489.4236 F100
G1 X72.88153 Y120 Z15.106848 E490.3159 F100
G1 X75.631033 Y120 Z11.631526 E491.2002 F100
G1 X78.380536 Y120 Z15.156203 E492.0923 F100
G1 X81.130039 Y120 Z11.680881 E492.9766 F100
G1 X83.879542 Y120 Z15.205559 E493.8687 F100
G1 X86.629045 Y120 Z11.730237 E494.753 F100
G1 X89.378548 Y120 Z15.254915 E495.6451 F100
G1 X92.128051 Y120 Z11.779593 E496.5295 F100
G1 X94.877554 Y120 Z15.30427 E497.4216 F100
G1 X97.627057 Y120 Z11.828948 E498.3059 F100
G1 X100.37656 Y120 Z15.353626 E499.198 F100
G1 X103.126063 Y120 Z11.878304 E500.0823 F100
G1 X105.875566 Y120 Z15.402982 E500.9744 F100
G1 X108.625069 Y120 Z11.927659 E501.8588 F100
G1 X111.366049 Y119.847167 Z15.452363 E502.7503 F100
G1 X114.005115 Y119.129325 Z11.977092 E503.6329 F100
G1 X116.341993 Y117.705189 Z15.501821 E504.5234 F100
G1 X118.17085 Y115.669934 Z12.02655 E505.4061 F100
G1 X119.399772 Y113.229283 Z15.551279 E506.2961 F100
G1 X119.945206 Y110.550305 Z12.076008 E507.1785 F100
G1 X120 Y107.805936 Z15.620677 E508.0732 F100
G1 X120 Y105.056433 Z12.145355 E508.9575 F100
G1 X120 Y102.30693 Z15.670033 E509.8496 F100
G1 X120 Y99.557427 Z12.194711 E510.7339 F100
G1 X120 Y96.807924 Z15.719389 E511.626 F100
G1 X120 Y94.058421 Z12.244067 E512.5104 F100
G1 X120 Y91.308918 Z15.768744 E513.4025 F100
G1 X120 Y88.559415 Z12.293422 E514.2868 F100
G1 X120 Y85.809912 Z15.8181 E515.1789 F100
G1 X120 Y83.060409 Z12.342778 E516.0632 F100
G1 X120 Y80.310906 Z15.867456 E516.9553 F100
G1 X120 Y77.561403 Z12.392134 E517.8397 F100
G1 X120 Y74.8119 Z15.916811 E518.7317 F100
G1 X120 Y72.062397 Z12.441489 E519.6161 F100
G1 X119.923604 Y69.317154 Z15.96618 E520.5078 F100
G1 X119.354854 Y66.644304 Z12.490909 E521.39 F100
G1 X118.103986 Y64.213627 Z16.015638 E522.2802 F100
G1 X116.249433 Y62.199001 Z12.540367 E523.1631 F100
G1 X113.876188 Y60.832869 Z16.065096 E524.0539 F100
G1 X111.232628 Y60.138723 Z12.589825 E524.9362 F100
G1 X108.493399 Y60 Z16.134223 E525.8305 F100
G1 X105.743898 Y60.0 Z12.659185 E526.7148 F100
G1 X102.994395 Y60 Z16.183863 E527.6069 F100
G1 X100.244892 Y60 Z12.708541 E528.4913 F100
G1 X97.495389 Y60 Z16.233219 E529.3833 F100
G1 X94.745886 Y60 Z12.757896 E530.2677 F100
G1 X91.996383 Y60 Z16.282574 E531.1598 F100
G1 X89.24688 Y60 Z12.807252 E532.0441 F100
G1 X86.497377 Y60 Z16.33193 E532.9362 F100
G1 X83.747874 Y60 Z12.856608 E533.8205 F100
G1 X80.998365 Y60 Z16.38 E534.7124 F100
G1 X78.248752 Y60 Z12.88 E535.6006 F100
G1 X75.499138 Y60.0 Z16.38 E536.4889 F100
G1 X72.749524 Y60.0 Z12.88 E537.3771 F100
G1 X70 Y60 Z16.4 E538.2684 F100
G1 X67.293384 Y60.419735 Z12.924729 E539.1515 F100
G1 X64.796845 Y61.532734 Z16.449458 E540.0416 F100
G1 X62.680465 Y63.261685 Z12.974187 E540.9239 F100
G1 X61.089449 Y65.489064 Z16.498916 E541.8145 F100
G1 X60.222608 Y68.085406 Z13.023645 E542.6973 F100
G1 X60 Y70.819498 Z16.567736 E543.5916 F100
G1 X60 Y73.568995 Z13.093018 E544.4759 F100
G1 X60 Y76.318498 Z16.617696 E545.368 F100
G1 X60 Y79.068001 Z13.142374 E546.2523 F100
G1 X60 Y81.817504 Z16.667051 E547.1444 F100
G1 X60 Y84.567007 Z13.191729 E548.0287 F100
G1 X60 Y87.31651 Z16.716407 E548.9208 F100
G1 X60 Y90.066013 Z13.241085 E549.8052 F100
G1 X60.0 Y92.815516 Z16.765763 E550.6973 F100
G1 X60 Y95.565019 Z13.290441 E551.5816 F100
G1 X60 Y98.314522 Z16.815118 E552.4737 F100
G1 X60.0 Y101.064025 Z13.339796 E553.358 F100
G1 X60.0 Y103.813528 Z16.864474 E554.2501 F100
G1 X60 Y106.563031 Z13.389152 E555.1345 F100
G1 X60 Y109.312534 Z16.91383 E556.0265 F100
G1 X60.229269 Y112.049252 Z13.438546 E556.9105 F100
G1 X61.169265 Y114.619632 Z16.963275 E557.801 F100
G1 X62.778248 Y116.830764 Z13.488004 E558.6835 F100
G1 X64.909565 Y118.540701 Z17.012733 E559.5735 F100
G1 X67.417622 Y119.632414 Z13.537462 E560.4561 F100
G1 X70.132035 Y120 Z17.081246 E561.3499 F100
G1 X72.88153 Y120 Z13.606848 E562.2341 F100
G1 X75.631033 Y120 Z17.131526 E563.1262 F100
G1 X78.380536 Y120 Z13.656203 E564.0106 F100
G1 X81.130039 Y120 Z17.180881 E564.9027 F100
G1 X83.879542 Y120 Z13.705559 E565.787 F100
G1 X86.629045 Y120 Z17.230237 E566.6791 F100
G1 X89.378548 Y120 Z13.754915 E567.5634 F100
G1 X92.128051 Y120 Z17.279593 E568.4555 F100
G1 X94.877554 Y120 Z13.80427 E569.3398 F100
G1 X97.627057 Y120 Z17.328948 E570.2319 F100
G1 X100.37656 Y120 Z13.853626 E571.1163 F100
G1 X103.126063 Y120 Z17.378304 E572.0084 F100
G1 X105.875566 Y120 Z13.902982 E572.8927 F100
G1 X108.625069 Y120 Z17.427659 E573.7848 F100
G1 X111.366049 Y119.847167 Z13.952363 E574.6686 F100
G1 X114.005115 Y119.129325 Z17.477092 E575.5589 F100
G1 X116.341993 Y117.705189 Z14.001821 E576.4417 F100
G1 X118.17085 Y115.669934 Z17.52655 E577.3321 F100
G1 X119.399772 Y113.229283 Z14.051279 E578.2144 F100
G1 X119.945206 Y110.550305 Z17.576008 E579.1046 F100
G1 X120 Y107.805936 Z14.120677 E579.9852 F100
G1 X120 Y105.056433 Z17.645355 E580.8773 F100
G1 X120 Y102.30693 Z14.170033 E581.7616 F100
G1 X120 Y99.557427 Z17.694711 E582.6537 F100
G1 X120 Y96.807924 Z14.219389 E583.5381 F100
G1 X120 Y94.058421 Z17.744067 E584.4301 F100
G1 X120 Y91.308918 Z14.268744 E585.3145 F100
G1 X120 Y88.559415 Z17.793422 E586.2066 F100
G1 X120 Y85.809912 Z14.3181 E587.0909 F100
G1 X120 Y83.060409 Z17.842778 E587.983 F100
G1 X120 Y80.310906 Z14.367456 E588.8673 F100
G1 X120 Y77.561403 Z17.892134 E589.7594 F100
G1 X120 Y74.8119 Z14.416811 E590.6438 F100
G1 X120 Y72.062397 Z17.941489 E591.5358 F100
G1 X119.923604 Y69.317154 Z14.46618 E592.4198 F100
G1 X119.354854 Y66.644304 Z17.990909 E593.3098 F100
G1 X118.103986 Y64.213627 Z14.515638 E594.1922 F100
G1 X116.249433 Y62.199001 Z18.040367 E595.0829 F100
G1 X113.876188 Y60.832869 Z14.565096 E595.9659 F100
G1 X111.232628 Y60.138723 Z18.089825 E596.856 F100
G1 X108.493399 Y60 Z14.634223 E597.7364 F100
G1 X105.743898 Y60.0 Z18.159185 E598.6285 F100
G1 X102.994395 Y60 Z14.683863 E599.5129 F100
G1 X100.244892 Y60 Z18.208541 E600.4049 F100
G1 X97.495389 Y60 Z14.733219 E601.2893 F100
G1 X94.745886 Y60 Z18.257896 E602.1814 F100
G1 X91.996383 Y60 Z14.782574 E603.0657 F100
G1 X89.24688 Y60 Z18.307252 E603.9578 F100
G1 X86.497377 Y60 Z14.83193 E604.8421 F100
G1 X83.747874 Y60 Z18.356608 E605.7342 F100
G1 X80.998365 Y60 Z14.88 E606.6188 F100
G1 X78.248752 Y60 Z18.38 E607.507 F100
G1 X75.499138 Y60.0 Z14.88 E608.3952 F100
G1 X72.749524 Y60 Z18.38 E609.2834 F100
G1 X70 Y60 Z14.9 E610.1685 F100
G1 X67.293384 Y60.419735 Z18.424729 E611.0593 F100
G1 X64.796845 Y61.532734 Z14.949458 E611.9417 F100
G1 X62.680465 Y63.261685 Z18.474187 E612.8317 F100
G1 X61.089449 Y65.489064 Z14.998916 E613.7145 F100
G1 X60.222608 Y68.085406 Z18.523645 E614.6051 F100
G1 X60 Y70.819498 Z15.067736 E615.4856 F100
G1 X60 Y73.568995 Z18.593018 E616.3778 F100
G1 X60 Y76.318498 Z15.117696 E617.2622 F100
G1 X60 Y79.068001 Z18.642374 E618.1542 F100
G1 X60 Y81.817504 Z15.167051 E619.0386 F100
G1 X60 Y84.567007 Z18.691729 E619.9307 F100
G1 X60 Y87.31651 Z15.216407 E620.815 F100
G1 X60 Y90.066013 Z18.741085 E621.7071 F100
G1 X60.0 Y92.815516 Z15.265763 E622.5914 F100
G1 X60 Y95.565019 Z18.790441 E623.4835 F100
G1 X60 Y98.314522 Z15.315118 E624.3679 F100
G1 X60.0 Y101.064025 Z18.839796 E625.2599 F100
G1 X60.0 Y103.813528 Z15.364474 E626.1443 F100
G1 X60 Y106.563031 Z18.889152 E627.0364 F100
G1 X60 Y109.312534 Z15.41383 E627.9207 F100
G1 X60.229269 Y112.049252 Z18.938546 E628.8124 F100
G1 X61.169265 Y114.619632 Z15.463275 E629.6952 F100
G1 X62.778248 Y116.830764 Z18.988004 E630.5855 F100
G1 X64.909565 Y118.540701 Z15.512733 E631.4677 F100
G1 X67.417622 Y119.632414 Z19.037462 E632.358 F100
G1 X70.132035 Y120 Z15.581246 E633.2381 F100
G1 X72.88153 Y120 Z19.106848 E634.1303 F100
G1 X75.631033 Y120 Z15.631526 E635.0147 F100
G1 X78.380536 Y120 Z19.156203 E635.9068 F100
G1 X81.130039 Y120 Z15.680881 E636.7911 F100
G1 X83.879542 Y120 Z19.205559 E637.6832 F100
G1 X86.629045 Y120 Z15.730237 E638.5675 F100
G1 X89.378548 Y120 Z19.254915 E639.4596 F100
G1 X92.128051 Y120 Z15.779593 E640.344 F100
G1 X94.877554 Y120 Z19.30427 E641.2361 F100
G1 X97.627057 Y120 Z15.828948 E642.1204 F100
G1 X100.37656 Y120 Z19.353626 E643.0125 F100
G1 X103.126063 Y120 Z15.878304 E643.8968 F100
G1 X105.875566 Y120 Z19.402982 E644.7889 F100
G1 X108.625069 Y120 Z15.927659 E645.6733 F100
G1 X111.366049 Y119.847167 Z19.452363 E646.5648 F100
G1 X114.005115 Y119.129325 Z15.977092 E647.4474 F100
G1 X116.341993 Y117.705189 Z19.501821 E648.3379 F100
G1 X118.17085 Y115.669934 Z16.02655 E649.2206 F100
G1 X119.399772 Y113.229283 Z19.551279 E650.1106 F100
G1 X119.945206 Y110.550305 Z16.076008 E650.993 F100
G1 X120 Y107.805936 Z19.620677 E651.8877 F100
G1 X120 Y105.056433 Z16.145355 E652.772 F100
G1 X120 Y102.30693 Z19.670033 E653.6641 F100
G1 X120 Y99.557427 Z16.194711 E654.5484 F100
G1 X120 Y96.807924 Z19.719389 E655.4405 F100
G1 X120 Y94.058421 Z16.244067 E656.3249 F100
G1 X120 Y91.308918 Z19.768744 E657.217 F100
G1 X120 Y88.559415 Z16.293422 E658.1013 F100
G1 X120 Y85.809912 Z19.8181 E658.9934 F100
G1 X120 Y83.060409 Z16.342778 E659.8777 F100
G1 X120 Y80.310906 Z19.867456 E660.7698 F100
G1 X120 Y77.561403 Z16.392134 E661.6542 F100
G1 X120 Y74.8119 Z19.916811 E662.5462 F100
G1 X120 Y72.062397 Z16.441489 E663.4306 F100
G1 X119.923604 Y69.317154 Z19.96618 E664.3223 F100
G1 X119.354854 Y66.644304 Z16.490909 E665.2045 F100
G1 X118.103986 Y64.213627 Z20.015638 E666.0947 F100
G1 X116.249433 Y62.199001 Z16.540367 E666.9776 F100
G1 X113.876188 Y60.832869 Z20.065096 E667.8684 F100
G1 X111.232628 Y60.138723 Z16.589825 E668.7507 F100
G1 X108.493399 Y60 Z20.134223 E669.645 F100
G1 X105.743898 Y60.0 Z16.659185 E670.5293 F100
G1 X102.994395 Y60 Z20.183863 E671.4214 F100
G1 X100.244892 Y60 Z16.708541 E672.3058 F100
G1 X97.495389 Y60 Z20.233219 E673.1978 F100
G1 X94.745886 Y60 Z16.757896 E674.0822 F100
G1 X91.996383 Y60 Z20.282574 E674.9743 F100
G1 X89.24688 Y60 Z16.807252 E675.8586 F100
G1 X86.497377 Y60 Z20.33193 E676.7507 F100
G1 X83.747874 Y60 Z16.856608 E677.635 F100
G1 X80.998365 Y60.0 Z20.38 E678.5269 F100
G1 X78.248752 Y60 Z16.88 E679.4151 F100
G1 X75.499138 Y60.0 Z20.38 E680.3034 F100
G1 X72.749524 Y60 Z16.88 E681.1916 F100
G1 X70 Y60.0 Z20.4 E682.0829 F100
G1 X67.293384 Y60.419735 Z16.924729 E682.966 F100
G1 X64.796845 Y61.532734 Z20.449458 E683.8561 F100
G1 X62.680465 Y63.261685 Z16.974187 E684.7384 F100
G1 X61.089449 Y65.489064 Z20.498916 E685.629 F100
G1 X60.222608 Y68.085406 Z17.023645 E686.5118 F100
G1 X60 Y70.819498 Z20.567736 E687.4061 F100
G1 X60 Y73.568995 Z17.093018 E688.2904 F100
G1 X60 Y76.318498 Z20.617696 E689.1825 F100
G1 X60 Y79.068001 Z17.142374 E690.0668 F100
G1 X60 Y81.817504 Z20.667051 E690.9589 F100
G1 X60 Y84.567007 Z17.191729 E691.8432 F100
G1 X60 Y87.31651 Z20.716407 E692.7353 F100
G1 X60 Y90.066013 Z17.241085 E693.6197 F100
G1 X60.0 Y92.815516 Z20.765763 E694.5118 F100
G1 X60 Y95.565019 Z17.290441 E695.3961 F100
G1 X60 Y98.314522 Z20.815118 E696.2882 F100
G1 X60.0 Y101.064025 Z17.339796 E697.1725 F100
G1 X60.0 Y103.813528 Z20.864474 E698.0646 F100
G1 X60 Y106.563031 Z17.389152 E698.949 F100
G1 X60 Y109.312534 Z20.91383 E699.841 F100
G1 X60.229269 Y112.049252 Z17.438546 E700.725 F100
G1 X61.169265 Y114.619632 Z20.963275 E701.6155 F100
G1 X62.778248 Y116.830764 Z17.488004 E702.498 F100
G1 X64.909565 Y118.540701 Z21.012733 E703.388 F100
G1 X67.417622 Y119.632414 Z17.537462 E704.2706 F100
G1 X70.132035 Y120 Z21.081246 E705.1644 F100
G1 X72.88153 Y120 Z17.606848 E706.0486 F100
G1 X75.631033 Y120 Z21.131526 E706.9407 F100
G1 X78.380536 Y120 Z17.656203 E707.8251 F100
G1 X81.130039 Y120 Z21.180881 E708.7172 F100
G1 X83.879542 Y120 Z17.705559 E709.6015 F100
G1 X86.629045 Y120 Z21.230237 E710.4936 F100
G1 X89.378548 Y120 Z17.754915 E711.3779 F100
G1 X92.128051 Y120 Z21.279593 E712.27 F100
G1 X94.877554 Y120 Z17.80427 E713.1543 F100
G1 X97.627057 Y120 Z21.328948 E714.0464 F100
G1 X100.37656 Y120 Z17.853626 E714.9308 F100
G1 X103.126063 Y120 Z21.378304 E715.8229 F100
G1 X105.875566 Y120 Z17.902982 E716.7072 F100
G1 X108.625069 Y120 Z21.427659 E717.5993 F100
G1 X111.366049 Y119.847167 Z17.952363 E718.4831 F100
G1 X114.005115 Y119.129325 Z21.477092 E719.3734 F100
G1 X116.341993 Y117.705189 Z18.001821 E720.2562 F100
G1 X118.17085 Y115.669934 Z21.52655 E721.1466 F100
G1 X119.399772 Y113.229283 Z18.051279 E722.0289 F100
G1 X119.945206 Y110.550305 Z21.576008 E722.9191 F100
G1 X120 Y107.805936 Z18.120677 E723.7997 F100
G1 X120 Y105.056433 Z21.645355 E724.6918 F100
G1 X120 Y102.30693 Z18.170033 E725.5761 F100
G1 X120 Y99.557427 Z21.694711 E726.4682 F100
G1 X120 Y96.807924 Z18.219389 E727.3526 F100
G1 X120 Y94.058421 Z21.744067 E728.2446 F100
G1 X120 Y91.308918 Z18.268744 E729.129 F100
G1 X120 Y88.559415 Z21.793422 E730.0211 F100
G1 X120 Y85.809912 Z18.3181 E730.9054 F100
G1 X120 Y83.060409 Z21.842778 E731.7975 F100
G1 X120 Y80.310906 Z18.367456 E732.6818 F100
G1 X120 Y77.561403 Z21.892134 E733.5739 F100
G1 X120 Y74.8119 Z18.416811 E734.4583 F100
G1 X120 Y72.062397 Z21.941489 E735.3503 F100
G1 X119.923604 Y69.317154 Z18.46618 E736.2343 F100
G1 X119.354854 Y66.644304 Z21.990909 E737.1243 F100
G1 X118.103986 Y64.213627 Z18.515638 E738.0067 F100
G1 X116.249433 Y62.199001 Z22.040367 E738.8974 F100
G1 X113.876188 Y60.832869 Z18.565096 E739.7804 F100
G1 X111.232628 Y60.138723 Z22.089825 E740.6705 F100
G1 X108.493399 Y60 Z18.634223 E741.5509 F100
G1 X105.743898 Y60.0 Z22.159185 E742.443 F100
G1 X102.994395 Y60 Z18.683863 E743.3274 F100
G1 X100.244892 Y60.0 Z22.208541 E744.2194 F100
G1 X97.495389 Y60 Z18.733219 E745.1038 F100
G1 X94.745886 Y60 Z22.257896 E745.9959 F100
G1 X91.996383 Y60 Z18.782574 E746.8802 F100
G1 X89.24688 Y60 Z22.307252 E747.7723 F100
G1 X86.497377 Y60 Z18.83193 E748.6566 F100
G1 X83.747874 Y60 Z22.356608 E749.5487 F100
G1 X80.998365 Y60 Z18.88 E750.4333 F100
G1 X78.248752 Y60.0 Z22.38 E751.3215 F100
G1 X75.499138 Y60.0 Z18.88 E752.2097 F100
G1 X72.749524 Y60.0 Z22.38 E753.0979 F100
G1 X70 Y60 Z18.9 E753.983 F100
G1 X67.293384 Y60.419735 Z22.424729 E754.8738 F100
G1 X64.796845 Y61.532734 Z18.949458 E755.7562 F100
G1 X62.680465 Y63.261685 Z22.474187 E756.6462 F100
G1 X61.089449 Y65.489064 Z18.998916 E757.529 F100
G1 X60.222608 Y68.085406 Z22.523645 E758.4196 F100
G1 X60 Y70.819498 Z19.067736 E759.3001 F100
G1 X60 Y73.568995 Z22.593018 E760.1923 F100
G1 X60 Y76.318498 Z19.117696 E761.0767 F100
G1 X60 Y79.068001 Z22.642374 E761.9687 F100
G1 X60 Y81.817504 Z19.167051 E762.8531 F100
G1 X60.0 Y84.567007 Z22.691729 E763.7452 F100
G1 X60 Y87.31651 Z19.216407 E764.6295 F100
G1 X60 Y90.066013 Z22.741085 E765.5216 F100
G1 X60.0 Y92.815516 Z19.265763 E766.4059 F100
G1 X60 Y95.565019 Z22.790441 E767.298 F100
G1 X60 Y98.314522 Z19.315118 E768.1824 F100
G1 X60.0 Y101.064025 Z22.839796 E769.0744 F100
G1 X60.0 Y103.813528 Z19.364474 E769.9588 F100
G1 X60 Y106.563031 Z22.889152 E770.8509 F100
G1 X60 Y109.312534 Z19.41383 E771.7352 F100
G1 X60.229269 Y112.049252 Z22.938546 E772.6269 F100
G1 X61.169265 Y114.619632 Z19.463275 E773.5097 F100
G1 X62.778248 Y116.830764 Z22.988004 E774.4 F100
G1 X64.909565 Y118.540701 Z19.512733 E775.2822 F100
G1 X67.417622 Y119.632414 Z23.037462 E776.1725 F100
G1 X70.132035 Y120 Z19.581246 E777.0526 F100
G1 X72.88153 Y120 Z23.106848 E777.9448 F100
G1 X75.631033 Y120 Z19.631526 E778.8292 F100
G1 X78.380536 Y120 Z23.156203 E779.7213 F100
G1 X81.130039 Y120 Z19.680881 E780.6056 F100
G1 X83.879542 Y120 Z23.205559 E781.4977 F100
G1 X86.629045 Y120 Z19.730237 E782.382 F100
G1 X89.378548 Y120 Z23.254915 E783.2741 F100
G1 X92.128051 Y120 Z19.779593 E784.1585 F100
G1 X94.877554 Y120 Z23.30427 E785.0506 F100
G1 X97.627057 Y120 Z19.828948 E785.9349 F100
G1 X100.37656 Y120 Z23.353626 E786.827 F100
G1 X103.126063 Y120 Z19.878304 E787.7113 F100
G1 X105.875566 Y120 Z23.402982 E788.6034 F100
G1 X108.625069 Y120 Z19.927659 E789.4878 F100
G1 X111.366049 Y119.847167 Z23.452363 E790.3793 F100
G1 X114.005115 Y119.129325 Z19.977092 E791.2619 F100
G1 X116.341993 Y117.705189 Z23.501821 E792.1524 F100
G1 X118.17085 Y115.669934 Z20.02655 E793.0351 F100
G1 X119.399772 Y113.229283 Z23.551279 E793.9251 F100
G1 X119.945206 Y110.550305 Z20.076008 E794.8075 F100
G1 X120 Y107.805936 Z23.620677 E795.7022 F100
G1 X120 Y105.056433 Z20.145355 E796.5865 F100
G1 X120 Y102.30693 Z23.670033 E797.4786 F100
G1 X120 Y99.557427 Z20.194711 E798.3629 F100
G1 X120 Y96.807924 Z23.719389 E799.255 F100
G1 X120 Y94.058421 Z20.244067 E800.1394 F100
G1 X120 Y91.308918 Z23.768744 E801.0315 F100
G1 X120 Y88.559415 Z20.293422 E801.9158 F100
G1 X120 Y85.809912 Z23.8181 E802.8079 F100
G1 X120 Y83.060409 Z20.342778 E803.6922 F100
G1 X120 Y80.310906 Z23.867456 E804.5843 F100
G1 X120 Y77.561403 Z20.392134 E805.4687 F100
G1 X120 Y74.8119 Z23.916811 E806.3607 F100
G1 X120 Y72.062397 Z20.441489 E807.2451 F100
G1 X119.923604 Y69.317154 Z23.96618 E808.1368 F100
G1 X119.354854 Y66.644304 Z20.490909 E809.019 F100
G1 X118.103986 Y64.213627 Z24.015638 E809.9092 F100
G1 X116.249433 Y62.199001 Z20.540367 E810.7921 F100
G1 X113.876188 Y60.832869 Z24.065096 E811.6829 F100
G1 X111.232628 Y60.138723 Z20.589825 E812.5652 F100
G1 X108.493399 Y60 Z24.134223 E813.4595 F100
G1 X105.743898 Y60.0 Z20.659185 E814.3438 F100
G1 X102.994395 Y60 Z24.183863 E815.2359 F100
G1 X100.244892 Y60 Z20.708541 E816.1203 F100
G1 X97.495389 Y60 Z24.233219 E817.0123 F100
G1 X94.745886 Y60 Z20.757896 E817.8967 F100
G1 X91.996383 Y60 Z24.282574 E818.7888 F100
G1 X89.24688 Y60 Z20.807252 E819.6731 F100
G1 X86.497377 Y60 Z24.33193 E820.5652 F100
G1 X83.747874 Y60 Z20.856608 E821.4495 F100
G1 X80.998365 Y60 Z24.38 E822.3414 F100
G1 X78.248752 Y60.0 Z20.88 E823.2296 F100
G1 X75.499138 Y60.0 Z24.38 E824.1179 F100
G1 X72.749524 Y60.0 Z20.88 E825.0061 F100
G1 X70 Y60 Z24.4 E825.8974 F100
G1 X67.293384 Y60.419735 Z20.924729 E826.7805 F100
G1 X64.796845 Y61.532734 Z24.449458 E827.6706 F100
G1 X62.680465 Y63.261685 Z20.974187 E828.5529 F100
G1 X61.089449 Y65.489064 Z24.498916 E829.4435 F100
G1 X60.222608 Y68.085406 Z21.023645 E830.3263 F100
G1 X60 Y70.819498 Z24.567736 E831.2206 F100
G1 X60 Y73.568995 Z21.093018 E832.1049 F100
G1 X60 Y76.318498 Z24.617696 E832.997 F100
G1 X60 Y79.068001 Z21.142374 E833.8813 F100
G1 X60 Y81.817504 Z24.667051 E834.7734 F100
G1 X60.0 Y84.567007 Z21.191729 E835.6577 F100
G1 X60 Y87.31651 Z24.716407 E836.5498 F100
G1 X60 Y90.066013 Z21.241085 E837.4342 F100
G1 X60.0 Y92.815516 Z24.765763 E838.3263 F100
G1 X60 Y95.565019 Z21.290441 E839.2106 F100
G1 X60 Y98.314522 Z24.815118 E840.1027 F100
G1 X60.0 Y101.064025 Z21.339796 E840.987 F100
G1 X60.0 Y103.813528 Z24.864474 E841.8791 F100
G1 X60 Y106.563031 Z21.389152 E842.7635 F100
G1 X60 Y109.312534 Z24.91383 E843.6555 F100
G1 X60.229269 Y112.049252 Z21.438546 E844.5395 F100
G1 X61.169265 Y114.619632 Z24.963275 E845.43 F100
G1 X62.778248 Y116.830764 Z21.488004 E846.3125 F100
G1 X64.909565 Y118.540701 Z25.012733 E847.2025 F100
G1 X67.417622 Y119.632414 Z21.537462 E848.0851 F100
G1 X70.132035 Y120 Z25.081246 E848.9789 F100
G1 X72.88153 Y120 Z21.606848 E849.8631 F100
G1 X75.631033 Y120 Z25.131526 E850.7552 F100
G1 X78.380536 Y120 Z21.656203 E851.6396 F100
G1 X81.130039 Y120 Z25.180881 E852.5317 F100
G1 X83.879542 Y120 Z21.705559 E853.416 F100
G1 X86.629045 Y120 Z25.230237 E854.3081 F100
G1 X89.378548 Y120 Z21.754915 E855.1924 F100
G1 X92.128051 Y120 Z25.279593 E856.0845 F100
G1 X94.877554 Y120 Z21.80427 E856.9688 F100
G1 X97.627057 Y120 Z25.328948 E857.8609 F100
G1 X100.37656 Y120 Z21.853626 E858.7453 F100
G1 X103.126063 Y120 Z25.378304 E859.6374 F100
G1 X105.875566 Y120 Z21.902982 E860.5217 F100
G1 X108.625069 Y120 Z25.427659 E861.4138 F100
G1 X111.366049 Y119.847167 Z21.952363 E862.2976 F100
G1 X114.005115 Y119.129325 Z25.477092 E863.1879 F100
G1 X116.341993 Y117.705189 Z22.001821 E864.0707 F100
G1 X118.17085 Y115.669934 Z25.52655 E864.9611 F100
G1 X119.399772 Y113.229283 Z22.051279 E865.8434 F100
G1 X119.945206 Y110.550305 Z25.576008 E866.7335 F100
G1 X120 Y107.805936 Z22.120677 E867.6142 F100
G1 X120 Y105.056433 Z25.645355 E868.5063 F100
G1 X120 Y102.30693 Z22.170033 E869.3906 F100
G1 X120 Y99.557427 Z25.694711 E870.2827 F100
G1 X120 Y96.807924 Z22.219389 E871.1671 F100
G1 X120 Y94.058421 Z25.744067 E872.0591 F100
G1 X120 Y91.308918 Z22.268744 E872.9435 F100
G1 X120 Y88.559415 Z25.793422 E873.8356 F100
G1 X120 Y85.809912 Z22.3181 E874.7199 F100
G1 X120 Y83.060409 Z25.842778 E875.612 F100
G1 X120 Y80.310906 Z22.367456 E876.4963 F100
G1 X120 Y77.561403 Z25.892134 E877.3884 F100
G1 X120 Y74.8119 Z22.416811 E878.2728 F100
G1 X120 Y72.062397 Z25.941489 E879.1648 F100
G1 X119.923604 Y69.317154 Z22.46618 E880.0488 F100
G1 X119.354854 Y66.644304 Z25.990909 E880.9388 F100
G1 X118.103986 Y64.213627 Z22.515638 E881.8212 F100
G1 X116.249433 Y62.199001 Z26.040367 E882.7119 F100
G1 X113.876188 Y60.832869 Z22.565096 E883.5949 F100
G1 X111.232628 Y60.138723 Z26.089825 E884.485 F100
G1 X108.493399 Y60 Z22.634223 E885.3654 F100
G1 X105.743898 Y60.0 Z26.159185 E886.2575 F100
G1 X102.994395 Y60 Z22.683863 E887.1419 F100
G1 X100.244892 Y60 Z26.208541 E888.0339 F100
G1 X97.495389 Y60 Z22.733219 E888.9183 F100
G1 X94.745886 Y60 Z26.257896 E889.8104 F100
G1 X91.996383 Y60 Z22.782574 E890.6947 F100
G1 X89.24688 Y60 Z26.307252 E891.5868 F100
G1 X86.497377 Y60 Z22.83193 E892.4711 F100
G1 X83.747874 Y60 Z26.356608 E893.3632 F100
G1 X80.998365 Y60 Z22.88 E894.2478 F100
G1 X78.248752 Y60.0 Z26.38 E895.136 F100
G1 X75.499138 Y60.0 Z22.88 E896.0242 F100
G1 X72.749524 Y60.0 Z26.38 E896.9124 F100
G1 X70 Y60 Z22.9 E897.7975 F100
G1 X67.293384 Y60.419735 Z26.424729 E898.6883 F100
G1 X64.796845 Y61.532734 Z22.949458 E899.5707 F100
G1 X62.680465 Y63.261685 Z26.474187 E900.4607 F100
G1 X61.089449 Y65.489064 Z22.998916 E901.3435 F100
G1 X60.222608 Y68.085406 Z26.523645 E902.2341 F100
G1 X60 Y70.819498 Z23.067736 E903.1146 F100
G1 X60 Y73.568995 Z26.593018 E904.0068 F100
G1 X60 Y76.318498 Z23.117696 E904.8912 F100
G1 X60 Y79.068001 Z26.642374 E905.7832 F100
G1 X60 Y81.817504 Z23.167051 E906.6676 F100
G1 X60.0 Y84.567007 Z26.691729 E907.5597 F100
G1 X60 Y87.31651 Z23.216407 E908.444 F100
G1 X60 Y90.066013 Z26.741085 E909.3361 F100
G1 X60.0 Y92.815516 Z23.265763 E910.2204 F100
G1 X60 Y95.565019 Z26.790441 E911.1125 F100
G1 X60 Y98.314522 Z23.315118 E911.9969 F100
G1 X60.0 Y101.064025 Z26.839796 E912.8889 F100
G1 X60.0 Y103.813528 Z23.364474 E913.7733 F100
G1 X60 Y106.563031 Z26.889152 E914.6654 F100
G1 X60 Y109.312534 Z23.41383 E915.5497 F100
G1 X60.229269 Y112.049252 Z26.938546 E916.4414 F100
G1 X61.169265 Y114.619632 Z23.463275 E917.3242 F100
G1 X62.778248 Y116.830764 Z26.988004 E918.2145 F100
G1 X64.909565 Y118.540701 Z23.512733 E919.0967 F100
G1 X67.417622 Y119.632414 Z27.037462 E919.987 F100
G1 X70.132035 Y120 Z23.581246 E920.8671 F100
G1 X72.88153 Y120 Z27.106848 E921.7593 F100
G1 X75.631033 Y120 Z23.631526 E922.6437 F100
G1 X78.380536 Y120 Z27.156203 E923.5358 F100
G1 X81.130039 Y120 Z23.680881 E924.4201 F100
G1 X83.879542 Y120 Z27.205559 E925.3122 F100
G1 X86.629045 Y120 Z23.730237 E926.1965 F100
G1 X89.378548 Y120 Z27.254915 E927.0886 F100
G1 X92.128051 Y120 Z23.779593 E927.973 F100
G1 X94.877554 Y120 Z27.30427 E928.8651 F100
G1 X97.627057 Y120 Z23.828948 E929.7494 F100
G1 X100.37656 Y120 Z27.353626 E930.6415 F100
G1 X103.126063 Y120 Z23.878304 E931.5258 F100
G1 X105.875566 Y120 Z27.402982 E932.4179 F100
G1 X108.625069 Y120 Z23.927659 E933.3023 F100
G1 X111.366049 Y119.847167 Z27.452363 E934.1938 F100
G1 X114.005115 Y119.129325 Z23.977092 E935.0764 F100
G1 X116.341993 Y117.705189 Z27.501821 E935.9669 F100
G1 X118.17085 Y115.669934 Z24.02655 E936.8496 F100
G1 X119.399772 Y113.229283 Z27.551279 E937.7396 F100
G1 X119.945206 Y110.550305 Z24.076008 E938.622 F100
G1 X120 Y107.805936 Z27.620677 E939.5167 F100
G1 X120 Y105.056433 Z24.145355 E940.401 F100
G1 X120 Y102.30693 Z27.670033 E941.2931 F100
G1 X120 Y99.557427 Z24.194711 E942.1774 F100
G1 X120 Y96.807924 Z27.719389 E943.0695 F100
G1 X120 Y94.058421 Z24.244067 E943.9539 F100
G1 X120 Y91.308918 Z27.768744 E944.846 F100
G1 X120 Y88.559415 Z24.293422 E945.7303 F100
G1 X120 Y85.809912 Z27.8181 E946.6224 F100
G1 X120 Y83.060409 Z24.342778 E947.5067 F100
G1 X120 Y80.310906 Z27.867456 E948.3988 F100
G1 X120 Y77.561403 Z24.392134 E949.2831 F100
G1 X120 Y74.8119 Z27.916811 E950.1752 F100
G1 X120 Y72.062397 Z24.441489 E951.0596 F100
G1 X119.923604 Y69.317154 Z27.96618 E951.9513 F100
G1 X119.354854 Y66.644304 Z24.490909 E952.8335 F100
G1 X118.103986 Y64.213627 Z28.015638 E953.7237 F100
G1 X116.249433 Y62.199001 Z24.540367 E954.6066 F100
G1 X113.876188 Y60.832869 Z28.065096 E955.4974 F100
G1 X111.232628 Y60.138723 Z24.589825 E956.3797 F100
G1 X108.493399 Y60 Z28.134223 E957.274 F100
G1 X105.743898 Y60.0 Z24.659185 E958.1583 F100
G1 X102.994395 Y60 Z28.183863 E959.0504 F100
G1 X100.244892 Y60 Z24.708541 E959.9348 F100
G1 X97.495389 Y60 Z28.233219 E960.8268 F100
G1 X94.745886 Y60 Z24.757896 E961.7112 F100
G1 X91.996383 Y60 Z28.282574 E962.6033 F100
G1 X89.24688 Y60 Z24.807252 E963.4876 F100
G1 X86.497377 Y60.0 Z28.33193 E964.3797 F100
G1 X83.747874 Y60 Z24.856608 E965.264 F100
G1 X80.998365 Y60 Z28.38 E966.1559 F100
G1 X78.248752 Y60.0 Z24.88 E967.0441 F100
G1 X75.499138 Y60.0 Z28.38 E967.9324 F100
G1 X72.749524 Y60.0 Z24.88 E968.8206 F100
G1 X70 Y60.0 Z28.4 E969.7119 F100
G1 X67.293384 Y60.419735 Z24.924729 E970.595 F100
G1 X64.796845 Y61.532734 Z28.449458 E971.4851 F100
G1 X62.680465 Y63.261685 Z24.974187 E972.3674 F100
G1 X61.089449 Y65.489064 Z28.498916 E973.258 F100
G1 X60.222608 Y68.085406 Z25.023645 E974.1408 F100
G1 X60 Y70.819498 Z28.567736 E975.0351 F100
G1 X60 Y73.568995 Z25.093018 E975.9194 F100
G1 X60 Y76.318498 Z28.617696 E976.8115 F100
G1 X60 Y79.068001 Z25.142374 E977.6958 F100
G1 X60 Y81.817504 Z28.667051 E978.5879 F100
G1 X60.0 Y84.567007 Z25.191729 E979.4722 F100
G1 X60 Y87.31651 Z28.716407 E980.3643 F100
G1 X60 Y90.066013 Z25.241085 E981.2487 F100
G1 X60.0 Y92.815516 Z28.765763 E982.1408 F100
G1 X60 Y95.565019 Z25.290441 E983.0251 F100
G1 X60.0 Y98.314522 Z28.815118 E983.9172 F100
G1 X60.0 Y101.064025 Z25.339796 E984.8015 F100
G1 X60.0 Y103.813528 Z28.864474 E985.6936 F100
G1 X60 Y106.563031 Z25.389152 E986.578 F100
G1 X60 Y109.312534 Z28.91383 E987.47 F100
G1 X60.229269 Y112.049252 Z25.438546 E988.354 F100
G1 X61.169265 Y114.619632 Z28.963275 E989.2445 F100
G1 X62.778248 Y116.830764 Z25.488004 E990.127 F100
G1 X64.909565 Y118.540701 Z29.012733 E991.017 F100
G1 X67.417622 Y119.632414 Z25.537462 E991.8996 F100
G1 X70.132035 Y120 Z29.081246 E992.7934 F100
G1 X72.88153 Y120 Z25.606848 E993.6776 F100
G1 X75.631033 Y120 Z29.131526 E994.5697 F100
G1 X78.380536 Y120 Z25.656203 E995.4541 F100
G1 X81.130039 Y120 Z29.180881 E996.3462 F100
G1 X83.879542 Y120 Z25.705559 E997.2305 F100
G1 X86.629045 Y120 Z29.230237 E998.1226 F100
G1 X89.378548 Y120 Z25.754915 E999.0069 F100
G1 X92.128051 Y120 Z29.279593 E999.899 F100
G1 X94.877554 Y120 Z25.80427 E1000.7833 F100
G1 X97.627057 Y120 Z29.328948 E1001.6754 F100
G1 X100.37656 Y120 Z25.853626 E1002.5598 F100
G1 X103.126063 Y120 Z29.378304 E1003.4519 F100
G1 X105.875566 Y120 Z25.902982 E1004.3362 F100
G1 X108.625069 Y120 Z29.427659 E1005.2283 F100
G1 X111.366049 Y119.847167 Z25.952363 E1006.1121 F100
G1 X114.005115 Y119.129325 Z29.477092 E1007.0024 F100
G1 X116.341993 Y117.705189 Z26.001821 E1007.8852 F100
G1 X118.17085 Y115.669934 Z29.52655 E1008.7756 F100
G1 X119.399772 Y113.229283 Z26.051279 E1009.6579 F100
G1 X119.945206 Y110.550305 Z29.576008 E1010.548 F100
G1 X120 Y107.805936 Z26.120677 E1011.4287 F100
G1 X120 Y105.056433 Z29.645355 E1012.3208 F100
G1 X120 Y102.30693 Z26.170033 E1013.2051 F100
G1 X120 Y99.557427 Z29.694711 E1014.0972 F100
G1 X120 Y96.807924 Z26.219389 E1014.9815 F100
G1 X120 Y94.058421 Z29.744067 E1015.8736 F100
G1 X120 Y91.308918 Z26.268744 E1016.758 F100
G1 X120 Y88.559415 Z29.793422 E1017.6501 F100
G1 X120 Y85.809912 Z26.3181 E1018.5344 F100
G1 X120 Y83.060409 Z29.842778 E1019.4265 F100
G1 X120 Y80.310906 Z26.367456 E1020.3108 F100
G1 X120 Y77.561403 Z29.892134 E1021.2029 F100
G1 X120 Y74.8119 Z26.416811 E1022.0873 F100
G1 X120 Y72.062397 Z29.941489 E1022.9793 F100
G1 X119.923604 Y69.317154 Z26.46618 E1023.8633 F100
G1 X119.354854 Y66.644304 Z29.990909 E1024.7533 F100
G1 X118.103986 Y64.213627 Z26.515638 E1025.6357 F100
G1 X116.249433 Y62.199001 Z30.040367 E1026.5264 F100
G1 X113.876188 Y60.832869 Z26.565096 E1027.4094 F100
G1 X111.232628 Y60.138723 Z30.089825 E1028.2995 F100
G1 X108.493399 Y60 Z26.634223 E1029.1799 F100
G1 X105.743898 Y60.0 Z30.159185 E1030.072 F100
G1 X102.994395 Y60 Z26.683863 E1030.9564 F100
G1 X100.244892 Y60 Z30.208541 E1031.8484 F100
G1 X97.495389 Y60 Z26.733219 E1032.7328 F100
G1 X94.745886 Y60 Z30.257896 E1033.6249 F100
G1 X91.996383 Y60 Z26.782574 E1034.5092 F100
G1 X89.24688 Y60 Z30.307252 E1035.4013 F100
G1 X86.497377 Y60.0 Z26.83193 E1036.2856 F100
G1 X83.747874 Y60 Z30.356608 E1037.1777 F100
G1 X80.998365 Y60 Z26.88 E1038.0623 F100
G1 X78.248752 Y60 Z30.38 E1038.9505 F100
G1 X75.499138 Y60.0 Z26.88 E1039.8387 F100
G1 X72.749524 Y60.0 Z30.38 E1040.7269 F100
G1 X70 Y60.0 Z26.9 E1041.612 F100
G1 X67.293384 Y60.419735 Z30.424729 E1042.5028 F100
G1 X64.796845 Y61.532734 Z26.949458 E1043.3852 F100
G1 X62.680465 Y63.261685 Z30.474187 E1044.2752 F100
G1 X61.089449 Y65.489064 Z26.998916 E1045.158 F100
G1 X60.222608 Y68.085406 Z30.523645 E1046.0486 F100
G1 X60 Y70.819498 Z27.067736 E1046.9291 F100
G1 X60 Y73.568995 Z30.593018 E1047.8213 F100
G1 X60 Y76.318498 Z27.117696 E1048.7057 F100
G1 X60.0 Y79.068001 Z30.642374 E1049.5977 F100
G1 X60 Y81.817504 Z27.167051 E1050.4821 F100
G1 X60 Y84.567007 Z30.691729 E1051.3742 F100
G1 X60 Y87.31651 Z27.216407 E1052.2585 F100
G1 X60 Y90.066013 Z30.741085 E1053.1506 F100
G1 X60.0 Y92.815516 Z27.265763 E1054.0349 F100
G1 X60 Y95.565019 Z30.790441 E1054.927 F100
G1 X60.0 Y98.314522 Z27.315118 E1055.8114 F100
G1 X60.0 Y101.064025 Z30.839796 E1056.7034 F100
G1 X60.0 Y103.813528 Z27.364474 E1057.5878 F100
G1 X60 Y106.563031 Z30.889152 E1058.4799 F100
G1 X60 Y109.312534 Z27.41383 E1059.3642 F100
G1 X60.229269 Y112.049252 Z30.938546 E1060.2559 F100
G1 X61.169265 Y114.619632 Z27.463275 E1061.1387 F100
G1 X62.778248 Y116.830764 Z30.988004 E1062.029 F100
G1 X64.909565 Y118.540701 Z27.512733 E1062.9112 F100
G1 X67.417622 Y119.632414 Z31.037462 E1063.8015 F100
G1 X70.132035 Y120 Z27.581246 E1064.6816 F100
G1 X72.88153 Y120 Z31.106848 E1065.5738 F100
G1 X75.631033 Y120 Z27.631526 E1066.4582 F100
G1 X78.380536 Y120 Z31.156203 E1067.3503 F100
G1 X81.130039 Y120 Z27.680881 E1068.2346 F100
G1 X83.879542 Y120 Z31.205559 E1069.1267 F100
G1 X86.629045 Y120 Z27.730237 E1070.011 F100
G1 X89.378548 Y120 Z31.254915 E1070.9031 F100
G1 X92.128051 Y120 Z27.779593 E1071.7875 F100
G1 X94.877554 Y120 Z31.30427 E1072.6796 F100
G1 X97.627057 Y120 Z27.828948 E1073.5639 F100
G1 X100.37656 Y120 Z31.353626 E1074.456 F100
G1 X103.126063 Y120 Z27.878304 E1075.3403 F100
G1 X105.875566 Y120 Z31.402982 E1076.2324 F100
G1 X108.625069 Y120 Z27.927659 E1077.1168 F100
G1 X111.366049 Y119.847167 Z31.452363 E1078.0083 F100
G1 X114.005115 Y119.129325 Z27.977092 E1078.8909 F100
G1 X116.341993 Y117.705189 Z31.501821 E1079.7814 F100
G1 X118.17085 Y115.669934 Z28.02655 E1080.6641 F100
G1 X119.399772 Y113.229283 Z31.551279 E1081.5541 F100
G1 X119.945206 Y110.550305 Z28.076008 E1082.4365 F100
G1 X120 Y107.805936 Z31.620677 E1083.3312 F100
G1 X120 Y105.056433 Z28.145355 E1084.2155 F100
G1 X120 Y102.30693 Z31.670033 E1085.1076 F100
G1 X120 Y99.557427 Z28.194711 E1085.9919 F100
G1 X120 Y96.807924 Z31.719389 E1086.884 F100
G1 X120 Y94.058421 Z28.244067 E1087.7684 F100
G1 X120 Y91.308918 Z31.768744 E1088.6605 F100
G1 X120 Y88.559415 Z28.293422 E1089.5448 F100
G1 X120 Y85.809912 Z31.8181 E1090.4369 F100
G1 X120 Y83.060409 Z28.342778 E1091.3212 F100
G1 X120 Y80.310906 Z31.867456 E1092.2133 F100
G1 X120 Y77.561403 Z28.392134 E1093.0976 F100
G1 X120 Y74.8119 Z31.916811 E1093.9897 F100
G1 X120 Y72.062397 Z28.441489 E1094.8741 F100
G1 X119.923604 Y69.317154 Z31.96618 E1095.7658 F100
G1 X119.354854 Y66.644304 Z28.490909 E1096.648 F100
G1 X118.103986 Y64.213627 Z32.015638 E1097.5382 F100
G1 X116.249433 Y62.199001 Z28.540367 E1098.4211 F100
G1 X113.876188 Y60.832869 Z32.065096 E1099.3119 F100
G1 X111.232628 Y60.138723 Z28.589825 E1100.1942 F100
G1 X108.493399 Y60.0 Z32.134223 E1101.0885 F100
G1 X105.743898 Y60.0 Z28.659185 E1101.9728 F100
G1 X102.994395 Y60.0 Z32.183863 E1102.8649 F100
G1 X100.244892 Y60 Z28.708541 E1103.7493 F100
G1 X97.495389 Y60 Z32.233219 E1104.6413 F100
G1 X94.745886 Y60 Z28.757896 E1105.5257 F100
G1 X91.996383 Y60 Z32.282574 E1106.4178 F100
G1 X89.24688 Y60 Z28.807252 E1107.3021 F100
G1 X86.497377 Y60.0 Z32.33193 E1108.1942 F100
G1 X83.747874 Y60 Z28.856608 E1109.0785 F100
G1 X80.998365 Y60.0 Z32.38 E1109.9704 F100
G1 X78.248752 Y60 Z28.88 E1110.8586 F100
G1 X75.499138 Y60.0 Z32.38 E1111.7469 F100
G1 X72.749524 Y60.0 Z28.88 E1112.6351 F100
G1 X70 Y60.0 Z32.4 E1113.5264 F100
G1 X67.293384 Y60.419735 Z28.924729 E1114.4095 F100
G1 X64.878824 Y61.48167 Z32.362907 E1115.2743 F100
G1 X62.680465 Y63.261685 Z28.974187 E1116.1552 F100
G1 X61.193369 Y65.326236 Z32.325813 E1116.9949 F100
G1 X60.222608 Y68.085406 Z29.023645 E1117.8752 F100
G1 X60 Y70.532913 Z32.274198 E1118.6884 F100
G1 X60 Y73.568995 Z29.093018 E1119.566 F100
G1 X60 Y75.93534 Z32.236728 E1120.3512 F100
G1 X60 Y79.068001 Z29.142374 E1121.23 F100
G1 X60 Y81.337763 Z32.199711 E1121.9898 F100
G1 X60 Y84.567007 Z29.191729 E1122.8705 F100
G1 X60 Y86.740185 Z32.162695 E1123.6051 F100
G1 X60 Y90.066013 Z29.241085 E1124.4885 F100
G1 X60.0 Y92.142608 Z32.125678 E1125.1978 F100
G1 X60 Y95.565019 Z29.290441 E1126.0847 F100
G1 X60.0 Y97.54503 Z32.088661 E1126.7688 F100
G1 X60.0 Y101.064025 Z29.339796 E1127.6599 F100
G1 X60.0 Y102.947453 Z32.051644 E1128.3188 F100
G1 X60 Y106.563031 Z29.389152 E1129.2149 F100
G1 X60 Y108.349875 Z32.014628 E1129.8486 F100
G1 X60.229269 Y112.049252 Z29.438546 E1130.7494 F100
G1 X60.693915 Y113.680091 Z31.977544 E1131.3587 F100
G1 X62.778248 Y116.830764 Z29.488004 E1132.2616 F100
G1 X63.935263 Y117.918877 Z31.94045 E1132.8447 F100
G1 X67.417622 Y119.632414 Z29.537462 E1133.7556 F100
G1 X68.888969 Y119.898086 Z31.889065 E1134.3117 F100
G1 X72.88153 Y120 Z29.606848 E1135.2297 F100
G1 X74.285215 Y120 Z31.851356 E1135.758 F100
G1 X78.380536 Y120 Z29.656203 E1136.6853 F100
G1 X79.687638 Y120 Z31.814339 E1137.1888 F100
G1 X83.879542 Y120 Z29.705559 E1138.1252 F100
G1 X85.09006 Y120 Z31.777322 E1138.604 F100
G1 X89.378548 Y120 Z29.754915 E1139.5502 F100
G1 X90.492483 Y120 Z31.740306 E1140.0046 F100
G1 X94.877554 Y120 Z29.80427 E1140.9611 F100
G1 X95.894905 Y120 Z31.703289 E1141.3911 F100
G1 X100.37656 Y120 Z29.853626 E1142.3586 F100
G1 X101.297328 Y120 Z31.666272 E1142.7643 F100
G1 X105.875566 Y120 Z29.902982 E1143.7434 F100
G1 X106.69975 Y120 Z31.629255 E1144.1251 F100
G1 X111.366049 Y119.847167 Z29.952363 E1145.1151 F100
G1 X112.095112 Y119.792627 Z31.592181 E1145.4734 F100
G1 X116.341993 Y117.705189 Z30.001821 E1146.4697 F100
G1 X116.885112 Y117.337764 Z31.555088 E1146.8061 F100
G1 X119.399772 Y113.229283 Z30.051279 E1147.8132 F100
G1 X119.674782 Y112.7488 Z31.517994 E1148.126 F100
G1 X120 Y107.805936 Z30.120677 E1149.1531 F100
G1 X120 Y107.36491 Z31.465984 E1149.4357 F100
G1 X120 Y102.30693 Z30.170033 E1150.4776 F100
G1 X120 Y101.962487 Z31.428967 E1150.7381 F100
G1 X120 Y96.807924 Z30.219389 E1151.7947 F100
G1 X120 Y96.560065 Z31.39195 E1152.0339 F100
G1 X120 Y91.308918 Z30.268744 E1153.1055 F100
G1 X120 Y91.157642 Z31.354933 E1153.3243 F100
G1 X120 Y85.809912 Z30.3181 E1154.4114 F100
G1 X120 Y85.75522 Z31.317917 E1154.6112 F100
G1 X120 Y80.310906 Z30.367456 E1155.7141 F100
G1 X120 Y80.352797 Z31.2809 E1155.8966 F100
G1 X120 Y74.8119 Z30.416811 E1157.0157 F100
G1 X120 Y74.950375 Z31.243883 E1157.1831 F100
G1 X119.923604 Y69.317154 Z30.46618 E1158.318 F100
G1 X120.147022 Y69.506051 Z31.206818 E1158.4769 F100
G1 X118.103986 Y64.213627 Z30.515638 E1159.6174 F100
G1 X118.426113 Y64.377277 Z31.169725 E1159.7665 F100
G1 X113.876188 Y60.832869 Z30.565096 E1160.9238 F100
G1 X114.321353 Y60.800558 Z31.132632 E1161.0679 F100
G1 X108.493399 Y60 Z30.634223 E1162.2461 F100
G1 X109.015035 Y60 Z31.080611 E1162.3831 F100
G1 X102.994395 Y60 Z30.683863 E1163.5872 F100
G1 X103.612612 Y60 Z31.043594 E1163.7299 F100
G1 X97.495389 Y60 Z30.733219 E1164.9522 F100
G1 X98.21019 Y60.0 Z31.006578 E1165.105 F100
G1 X91.996383 Y60 Z30.782574 E1166.3458 F100
G1 X92.807767 Y60 Z30.969561 E1166.512 F100
G1 X86.497377 Y60.0 Z30.83193 E1167.7716 F100
G1 X87.405344 Y60.0 Z30.932544 E1167.9539 F100
G1 X80.998365 Y60 Z30.88 E1169.2325 F100
G1 X82.003009 Y60 Z30.915 E1169.4331 F100
G1 X75.499138 Y60.0 Z30.88 E1170.7311 F100
G1 X76.600753 Y60.0 Z30.915 E1170.951 F100
G1 X70 Y60.0 Z31.3 E1172.2705 F100
G1 X67.808925 Y60.245136 Z31.3 E1172.7105 F100
G1 X65.725264 Y60.964308 Z31.3 E1173.1504 F100
G1 X63.850234 Y62.122367 Z31.3 E1173.5902 F100
G1 X62.274872 Y63.662852 Z31.3 E1174.0299 F100
G1 X61.075614 Y65.510741 Z31.3 E1174.4695 F100
G1 X60.31059 Y67.57611 Z31.3 E1174.909 F100
G1 X60.01681 Y69.7585 Z31.3 E1175.3485 F100
G1 X60 Y71.962251 Z31.3 E1175.7883 F100
G1 X60 Y74.166996 Z31.3 E1176.2282 F100
G1 X60 Y76.371741 Z31.3 E1176.6682 F100
G1 X60 Y78.576487 Z31.3 E1177.1082 F100
G1 X60 Y80.781232 Z31.3 E1177.5482 F100
G1 X60 Y82.985977 Z31.3 E1177.9882 F100
G1 X60.0 Y85.190722 Z31.3 E1178.4281 F100
G1 X60 Y87.395468 Z31.3 E1178.8681 F100
G1 X60 Y89.600213 Z31.3 E1179.3081 F100
G1 X60.0 Y91.804958 Z31.3 E1179.7481 F100
G1 X60 Y94.009704 Z31.3 E1180.1881 F100
G1 X60 Y96.214449 Z31.3 E1180.628 F100
G1 X60.0 Y98.419194 Z31.3 E1181.068 F100
G1 X60.0 Y100.623939 Z31.3 E1181.508 F100
G1 X60.0 Y102.828685 Z31.3 E1181.948 F100
G1 X60 Y105.03343 Z31.3 E1182.388 F100
G1 X60 Y107.238175 Z31.3 E1182.828 F100
G1 X60 Y109.44292 Z31.3 E1183.2679 F100
G1 X60.183197 Y111.63745 Z31.3 E1183.7074 F100
G1 X60.781554 Y113.748487 Z31.3 E1184.1453 F100
G1 X61.827834 Y115.676915 Z31.3 E1184.5831 F100
G1 X63.271104 Y117.329058 Z31.3 E1185.0209 F100
G1 X65.041151 Y118.624682 Z31.3 E1185.4586 F100
G1 X67.051897 Y119.500891 Z31.3 E1185.8964 F100
G1 X69.205588 Y119.915179 Z31.3 E1186.334 F100
G1 X71.405171 Y120 Z31.3 E1186.7733 F100
G1 X73.609916 Y120 Z31.3 E1187.2133 F100
G1 X75.814662 Y120 Z31.3 E1187.6533 F100
G1 X78.019407 Y120 Z31.3 E1188.0932 F100
G1 X80.224152 Y120 Z31.3 E1188.5332 F100
G1 X82.428898 Y120 Z31.3 E1188.9732 F100
G1 X84.633643 Y120 Z31.3 E1189.4132 F100
G1 X86.838388 Y120 Z31.3 E1189.8532 F100
G1 X89.043133 Y120 Z31.3 E1190.2931 F100
G1 X91.247879 Y120 Z31.3 E1190.7331 F100
G1 X93.452624 Y120 Z31.3 E1191.1731 F100
G1 X95.657369 Y120 Z31.3 E1191.6131 F100
G1 X97.862114 Y120 Z31.3 E1192.0531 F100
G1 X100.06686 Y120 Z31.3 E1192.4931 F100
G1 X102.271605 Y120 Z31.3 E1192.933 F100
G1 X104.47635 Y120 Z31.3 E1193.373 F100
G1 X106.681095 Y120 Z31.3 E1193.813 F100
G1 X108.885841 Y120 Z31.3 E1194.253 F100
G1 X111.083824 Y119.878743 Z31.3 E1194.6923 F100
G1 X113.222237 Y119.401201 Z31.3 E1195.1295 F100
G1 X115.204064 Y118.466699 Z31.3 E1195.5668 F100
G1 X116.932988 Y117.120643 Z31.3 E1196.004 F100
G1 X118.324978 Y115.42844 Z31.3 E1196.4413 F100
G1 X119.312373 Y113.472315 Z31.3 E1196.8786 F100
G1 X119.847169 Y111.347325 Z31.3 E1197.3159 F100
G1 X120 Y109.151908 Z31.3 E1197.7551 F100
G1 X120 Y106.947163 Z31.3 E1198.195 F100
G1 X120 Y104.742418 Z31.3 E1198.635 F100
G1 X120 Y102.537673 Z31.3 E1199.075 F100
G1 X120 Y100.332927 Z31.3 E1199.515 F100
G1 X120 Y98.128182 Z31.3 E1199.955 F100
G1 X120 Y95.923437 Z31.3 E1200.3949 F100
G1 X120 Y93.718692 Z31.3 E1200.8349 F100
G1 X120 Y91.513946 Z31.3 E1201.2749 F100
G1 X120 Y89.309201 Z31.3 E1201.7149 F100
G1 X120 Y87.104456 Z31.3 E1202.1549 F100
G1 X120 Y84.89971 Z31.3 E1202.5949 F100
G1 X120 Y82.694965 Z31.3 E1203.0348 F100
G1 X120 Y80.49022 Z31.3 E1203.4748 F100
G1 X120 Y78.285475 Z31.3 E1203.9148 F100
G1 X120 Y76.080729 Z31.3 E1204.3548 F100
G1 X120 Y73.875984 Z31.3 E1204.7948 F100
G1 X120 Y71.671239 Z31.3 E1205.2347 F100
G1 X119.940682 Y69.469802 Z31.3 E1205.6742 F100
G1 X119.583956 Y67.304012 Z31.3 E1206.1122 F100
G1 X118.761233 Y65.268786 Z31.3 E1206.5503 F100
G1 X117.512391 Y63.463082 Z31.3 E1206.9885 F100
G1 X115.89803 Y61.974726 Z31.3 E1207.4267 F100
G1 X113.996527 Y60.876146 Z31.3 E1207.8649 F100
G1 X111.900237 Y60.220842 Z31.3 E1208.3032 F100
G1 X109.708988 Y60 Z31.3 E1208.7427 F100
G1 X107.504243 Y60 Z31.3 E1209.1827 F100
G1 X105.299498 Y60.0 Z31.3 E1209.6227 F100
G1 X103.094752 Y60 Z31.3 E1210.0626 F100
G1 X100.890007 Y60 Z31.3 E1210.5026 F100
G1 X98.685262 Y60 Z31.3 E1210.9426 F100
G1 X96.480516 Y60.0 Z31.3 E1211.3826 F100
G1 X94.275771 Y60 Z31.3 E1211.8226 F100
G1 X92.071026 Y60 Z31.3 E1212.2625 F100
G1 X89.866281 Y60 Z31.3 E1212.7025 F100
G1 X87.661535 Y60 Z31.3 E1213.1425 F100
G1 X85.45679 Y60.0 Z31.3 E1213.5825 F100
G1 X83.252045 Y60.0 Z31.3 E1214.0225 F100
G1 X81.0473 Y60 Z31.3 E1214.4624 F100
G1 X78.842554 Y60 Z31.3 E1214.9024 F100
G1 X76.637809 Y60.0 Z31.3 E1215.3424 F100
G1 X74.433064 Y60.0 Z31.3 E1215.7824 F100
G1 X72.228319 Y60.0 Z31.3 E1216.2224 F100
G1 X72.228319 Y60.0 Z51.3 E1216.2224 F100
G91
G1 Z5
G90
G28 X0
M106 S0
M104 S0
M140 S0
M84
